{"status":true,"code":0,"msg":"","data":{"A":[{"id":"345","city_code":"3300","standard_code":"820000","script_index":"0","agency_code":"","parent_id":"35","name":"°ÄÃÅ","domain":"aomen","database":"others","pinyin":"aomen","location":"b113.5512555,22.1920431","region_id":"0","area_code":"00853","nc_region_id":"0","type":"2"},{"id":"57","city_code":"802","standard_code":"210300","script_index":"2","agency_code":"ÁÉC","parent_id":"9","name":"°°É½","domain":"anshan","database":"others","pinyin":"anshan","location":"b122.994646,41.108546","region_id":"4","area_code":"0412","nc_region_id":"100","type":"2"},{"id":"39","city_code":"703","standard_code":"520400","script_index":"3","agency_code":"¹óG","parent_id":"8","name":"°²Ë³","domain":"anshun","database":"others","pinyin":"anshun","location":"b105.947594,26.253072","region_id":"5","area_code":"0853","nc_region_id":"104","type":"2"},{"id":"127","city_code":"1604","standard_code":"340800","script_index":"4","agency_code":"ÍîH","parent_id":"17","name":"°²Çì","domain":"anqing","database":"others","pinyin":"anqing","location":"b117.056857,30.524895","region_id":"7","area_code":"0556","nc_region_id":"103","type":"2"},{"id":"246","city_code":"2905","standard_code":"652900","script_index":"5","agency_code":"ÐÂN","parent_id":"30","name":"°¢¿ËËÕ","domain":"akesu","database":"others","pinyin":"akesu","location":"b80.260605,41.168779","region_id":"3","area_code":"0997","nc_region_id":"103","type":"2"},{"id":"261","city_code":"3005","standard_code":"542500","script_index":"5","agency_code":"²ØF","parent_id":"31","name":"°¢Àï","domain":"ali","database":"others","pinyin":"ali","location":"b80.105652,32.501034","region_id":"3","area_code":"0897","nc_region_id":"103","type":"2"},{"id":"109","city_code":"1206","standard_code":"410500","script_index":"6","agency_code":"Ô¥E","parent_id":"13","name":"°²Ñô","domain":"anyang","database":"others","pinyin":"anyang","location":"b114.392756,36.097593","region_id":"6","area_code":"0372","nc_region_id":"103","type":"2"},{"id":"184","city_code":"2308","standard_code":"610900","script_index":"8","agency_code":"ÉÂG","parent_id":"24","name":"°²¿µ","domain":"ankang","database":"others","pinyin":"ankang","location":"b109.029303,32.684781","region_id":"3","area_code":"0915","nc_region_id":"103","type":"2"},{"id":"322","city_code":"1911","standard_code":"152900","script_index":"11","agency_code":"ÃÉM","parent_id":"20","name":"°¢À­ÉÆ","domain":"alashan","database":"others","pinyin":"alashan","location":"b105.728969,38.851892","region_id":"8","area_code":"0483","nc_region_id":"100","type":"2"},{"id":"254","city_code":"2914","standard_code":"654300","script_index":"14","agency_code":"ÐÂH","parent_id":"30","name":"°¢ÀÕÌ©","domain":"aletai","database":"others","pinyin":"aletai","location":"b88.141253,47.844924","region_id":"3","area_code":"0906","nc_region_id":"103","type":"2"},{"id":"283","city_code":"519","standard_code":"513200","script_index":"19","agency_code":"´¨U","parent_id":"6","name":"°¢°Ó","domain":"aba","database":"others","pinyin":"aba","location":"b102.224653,31.899413","region_id":"5","area_code":"0837","nc_region_id":"104","type":"2"},{"id":"374","city_code":"2916","standard_code":"659002","script_index":"16","agency_code":"ÐÂN","parent_id":"30","name":"°¢À­¶û","domain":"alaer","database":"others","pinyin":"alaer","location":"b81.280385,40.546286","region_id":"3","area_code":"0997","nc_region_id":"103","type":"2"}],"B":[{"id":"12","city_code":"0","standard_code":"110000","script_index":"0","agency_code":"¾©A~Y","parent_id":"1","name":"±±¾©","domain":"bj","database":"beijing","pinyin":"beijing","location":"b116.407413,39.904214","region_id":"8","area_code":"010","nc_region_id":"100","type":"2"},{"id":"146","city_code":"1901","standard_code":"150200","script_index":"1","agency_code":"ÃÉB","parent_id":"20","name":"°üÍ·","domain":"baotou","database":"others","pinyin":"baotou","location":"b109.840386,40.657447","region_id":"8","area_code":"0472","nc_region_id":"100","type":"2"},{"id":"125","city_code":"1602","standard_code":"340300","script_index":"2","agency_code":"ÍîC","parent_id":"17","name":"°ö²º","domain":"bengbu","database":"others","pinyin":"bengbu","location":"b117.389719,32.916287","region_id":"7","area_code":"0552","nc_region_id":"103","type":"2"},{"id":"168","city_code":"2202","standard_code":"620400","script_index":"2","agency_code":"¸ÊD","parent_id":"23","name":"°×Òø","domain":"baiyin","database":"others","pinyin":"baiyin","location":"b104.137619,36.544827","region_id":"3","area_code":"0943","nc_region_id":"103","type":"2"},{"id":"178","city_code":"2302","standard_code":"610300","script_index":"2","agency_code":"ÉÂC","parent_id":"24","name":"±¦¼¦","domain":"baoji","database":"others","pinyin":"baoji","location":"b107.1339,34.372436","region_id":"3","area_code":"0917","nc_region_id":"103","type":"2"},{"id":"228","city_code":"2803","standard_code":"530500","script_index":"3","agency_code":"ÔÆM","parent_id":"29","name":"±£É½","domain":"baoshan","database":"others","pinyin":"baoshan","location":"b99.161471,25.112065","region_id":"5","area_code":"0875","nc_region_id":"104","type":"2"},{"id":"6","city_code":"1104","standard_code":"130600","script_index":"4","agency_code":"¼½F","parent_id":"12","name":"±£¶¨","domain":"baoding","database":"others","pinyin":"baoding","location":"b115.46463,38.873972","region_id":"3","area_code":"0312","nc_region_id":"100","type":"2"},{"id":"41","city_code":"705","standard_code":"520500","script_index":"5","agency_code":"¹óF","parent_id":"8","name":"±Ï½Ú","domain":"bijie","database":"others","pinyin":"bijie","location":"b105.33332337117,27.408562131331","region_id":"5","area_code":"0857","nc_region_id":"104","type":"2"},{"id":"89","city_code":"1305","standard_code":"220600","script_index":"5","agency_code":"¼ªF","parent_id":"14","name":"°×É½","domain":"baishan","database":"others","pinyin":"baishan","location":"b126.423587,41.939994","region_id":"4","area_code":"0439","nc_region_id":"100","type":"2"},{"id":"91","city_code":"1307","standard_code":"220800","script_index":"7","agency_code":"¼ªG","parent_id":"14","name":"°×³Ç","domain":"baicheng","database":"others","pinyin":"baicheng","location":"b122.839024,45.619641","region_id":"4","area_code":"0436","nc_region_id":"100","type":"2"},{"id":"139","city_code":"1707","standard_code":"451000","script_index":"7","agency_code":"¹ðL","parent_id":"18","name":"°ÙÉ«","domain":"baise","database":"others","pinyin":"baise","location":"b106.618275,23.902371","region_id":"2","area_code":"0776","nc_region_id":"101","type":"2"},{"id":"152","city_code":"1907","standard_code":"150800","script_index":"7","agency_code":"ÃÉL","parent_id":"20","name":"°ÍÑåÄ×¶û","domain":"bayannaoer","database":"others","pinyin":"bayannaoer","location":"b107.386669,40.766188","region_id":"8","area_code":"0478","nc_region_id":"100","type":"2"},{"id":"122","city_code":"1509","standard_code":"371600","script_index":"9","agency_code":"Â³M","parent_id":"16","name":"±õÖÝ","domain":"binzhou","database":"others","pinyin":"binzhou","location":"b117.970703,37.381988","region_id":"4","area_code":"0543","nc_region_id":"103","type":"2"},{"id":"249","city_code":"2909","standard_code":"652800","script_index":"9","agency_code":"ÐÂM","parent_id":"30","name":"°ÍÒô¹ùÀã","domain":"bayinguoleng","database":"others","pinyin":"bayinguoleng","location":"b83.654262223788,42.608612242352","region_id":"3","area_code":"0996","nc_region_id":"103","type":"2"},{"id":"286","city_code":"810","standard_code":"210500","script_index":"10","agency_code":"ÁÉE","parent_id":"9","name":"±¾Ïª","domain":"benxi","database":"others","pinyin":"benxi","location":"b123.766485,41.294176","region_id":"4","area_code":"0414","nc_region_id":"100","type":"2"},{"id":"317","city_code":"1710","standard_code":"450500","script_index":"10","agency_code":"¹ðE","parent_id":"18","name":"±±º£","domain":"beihai","database":"others","pinyin":"beihai","location":"b109.119899,21.481217","region_id":"2","area_code":"0779","nc_region_id":"101","type":"2"},{"id":"251","city_code":"2912","standard_code":"652700","script_index":"12","agency_code":"ÐÂE","parent_id":"30","name":"²©¶ûËþÀ­","domain":"boertala","database":"others","pinyin":"boertala","location":"b82.066159,44.905588","region_id":"3","area_code":"0909","nc_region_id":"103","type":"2"},{"id":"314","city_code":"1614","standard_code":"341600","script_index":"14","agency_code":"ÍîS","parent_id":"17","name":"ÙñÖÝ","domain":"bozhou","database":"others","pinyin":"bozhou","location":"b115.778676,33.844582","region_id":"7","area_code":"0558","nc_region_id":"103","type":"2"},{"id":"281","city_code":"517","standard_code":"511900","script_index":"17","agency_code":"´¨Y","parent_id":"6","name":"°ÍÖÐ","domain":"bazhong","database":"others","pinyin":"bazhong","location":"b106.744729,31.865236","region_id":"5","area_code":"0827","nc_region_id":"104","type":"2"}],"C":[{"id":"15","city_code":"300","standard_code":"500000","script_index":"0","agency_code":"ÓåA~H","parent_id":"4","name":"ÖØÇì","domain":"cq","database":"chongqing","pinyin":"chongqing","location":"b106.551557,29.56301","region_id":"5","area_code":"023","nc_region_id":"103","type":"2"},{"id":"45","city_code":"500","standard_code":"510100","script_index":"0","agency_code":"´¨A","parent_id":"6","name":"³É¶¼","domain":"cd","database":"chengdou","pinyin":"chengdu","location":"b104.064856,30.658601","region_id":"5","area_code":"028","nc_region_id":"104","type":"2"},{"id":"84","city_code":"1300","standard_code":"220100","script_index":"0","agency_code":"¼ªA","parent_id":"14","name":"³¤´º","domain":"cc","database":"changchun","pinyin":"changchun","location":"b125.323542,43.817084","region_id":"4","area_code":"0431","nc_region_id":"100","type":"2"},{"id":"204","city_code":"2600","standard_code":"430100","script_index":"0","agency_code":"ÏæA","parent_id":"27","name":"³¤É³","domain":"cs","database":"changsha","pinyin":"changsha","location":"b112.938814,28.228209","region_id":"6","area_code":"0731","nc_region_id":"103","type":"2"},{"id":"257","city_code":"3001","standard_code":"540300","script_index":"1","agency_code":"²ØB","parent_id":"31","name":"²ý¶¼","domain":"changdu","database":"others","pinyin":"changdu","location":"b97.17202,31.140969","region_id":"3","area_code":"0895","nc_region_id":"103","type":"2"},{"id":"148","city_code":"1903","standard_code":"150400","script_index":"3","agency_code":"ÃÉD","parent_id":"20","name":"³à·å","domain":"chifeng","database":"others","pinyin":"chifeng","location":"b118.886856,42.257817","region_id":"8","area_code":"0476","nc_region_id":"100","type":"2"},{"id":"158","city_code":"2003","standard_code":"140400","script_index":"3","agency_code":"½úD","parent_id":"21","name":"³¤ÖÎ","domain":"changzhi","database":"others","pinyin":"changzhi","location":"b113.116255,36.195386","region_id":"3","area_code":"0355","nc_region_id":"100","type":"2"},{"id":"69","city_code":"904","standard_code":"320400","script_index":"4","agency_code":"ËÕD","parent_id":"10","name":"³£ÖÝ","domain":"changzhou","database":"others","pinyin":"changzhou","location":"b119.974454,31.810077","region_id":"7","area_code":"0519","nc_region_id":"102","type":"2"},{"id":"128","city_code":"1605","standard_code":"341100","script_index":"5","agency_code":"ÍîM","parent_id":"17","name":"³üÖÝ","domain":"chuzhou","database":"others","pinyin":"chuzhou","location":"b118.317107,32.301556","region_id":"7","area_code":"0550","nc_region_id":"103","type":"2"},{"id":"8","city_code":"1106","standard_code":"130800","script_index":"6","agency_code":"¼½H","parent_id":"12","name":"³ÐµÂ","domain":"chengde","database":"others","pinyin":"chengde","location":"b117.943621,40.978744","region_id":"3","area_code":"0314","nc_region_id":"100","type":"2"},{"id":"210","city_code":"2606","standard_code":"430700","script_index":"6","agency_code":"ÏæJ","parent_id":"27","name":"³£µÂ","domain":"changde","database":"others","pinyin":"changde","location":"b111.698497,29.031673","region_id":"6","area_code":"0736","nc_region_id":"103","type":"2"},{"id":"9","city_code":"1107","standard_code":"130900","script_index":"7","agency_code":"¼½J","parent_id":"12","name":"²×ÖÝ","domain":"cangzhou","database":"others","pinyin":"cangzhou","location":"b116.83884,38.304449","region_id":"3","area_code":"0317","nc_region_id":"100","type":"2"},{"id":"211","city_code":"2607","standard_code":"431000","script_index":"7","agency_code":"ÏæL","parent_id":"27","name":"³»ÖÝ","domain":"chenzhou","database":"others","pinyin":"chenzhou","location":"b113.014718,25.77051","region_id":"6","area_code":"0735","nc_region_id":"103","type":"2"},{"id":"236","city_code":"2807","standard_code":"532300","script_index":"7","agency_code":"ÔÆE","parent_id":"29","name":"³þÐÛ","domain":"chuxiong","database":"others","pinyin":"chuxiong","location":"b101.528069,25.045532","region_id":"5","area_code":"0878","nc_region_id":"104","type":"2"},{"id":"131","city_code":"1608","standard_code":"340181","script_index":"8","agency_code":"ÍîQ","parent_id":"17","name":"³²ºþ","domain":"chaohu","database":"others","pinyin":"chaohu","location":"b117.864722,31.597853","region_id":"7","area_code":"0565","nc_region_id":"103","type":"2"},{"id":"250","city_code":"2911","standard_code":"652300","script_index":"11","agency_code":"ÐÂB","parent_id":"30","name":"²ý¼ª","domain":"changji","database":"others","pinyin":"changji","location":"b87.308225,44.011183","region_id":"3","area_code":"0994","nc_region_id":"103","type":"2"},{"id":"385","city_code":"611","standard_code":"330282","script_index":"11","agency_code":"ÕãB","parent_id":"7","name":"´ÈÏª","domain":"cixi","database":"others","pinyin":"cixi","location":"b121.274736,30.186011","region_id":"1","area_code":"0574","nc_region_id":"102","type":"2"},{"id":"289","city_code":"813","standard_code":"211300","script_index":"13","agency_code":"ÁÉN","parent_id":"9","name":"³¯ÑôÊÐ","domain":"chaoyang","database":"others","pinyin":"chaoyang","location":"b120.450372,41.573734","region_id":"4","area_code":"0421","nc_region_id":"100","type":"2"},{"id":"320","city_code":"1713","standard_code":"451400","script_index":"13","agency_code":"¹ðF","parent_id":"18","name":"³ç×ó","domain":"chongzuo","database":"others","pinyin":"chongzuo","location":"b107.364962,22.377281","region_id":"2","area_code":"0771","nc_region_id":"101","type":"2"},{"id":"384","city_code":"914","standard_code":"320581","script_index":"14","agency_code":"ËÕE","parent_id":"10","name":"³£Êì","domain":"changshu","database":"others","pinyin":"changshu","location":"b120.761346,31.664897","region_id":"7","area_code":"0512","nc_region_id":"102","type":"2"},{"id":"315","city_code":"1615","standard_code":"341700","script_index":"15","agency_code":"ÍîR","parent_id":"17","name":"³ØÖÝ","domain":"chizhou","database":"others","pinyin":"chizhou","location":"b117.495707,30.674219","region_id":"7","area_code":"0566","nc_region_id":"103","type":"2"},{"id":"271","city_code":"418","standard_code":"445100","script_index":"18","agency_code":"ÔÁU","parent_id":"5","name":"³±ÖÝ","domain":"chaozhou","database":"others","pinyin":"chaozhou","location":"b116.622597,23.656972","region_id":"2","area_code":"0768","nc_region_id":"101","type":"2"}],"D":[{"id":"56","city_code":"801","standard_code":"210200","script_index":"1","agency_code":"ÁÉB","parent_id":"9","name":"´óÁ¬","domain":"dl","database":"dalian","pinyin":"dalian","location":"b121.614677,38.914024","region_id":"4","area_code":"0411","nc_region_id":"100","type":"2"},{"id":"156","city_code":"2001","standard_code":"140200","script_index":"1","agency_code":"½úB","parent_id":"21","name":"´óÍ¬","domain":"datong","database":"others","pinyin":"datong","location":"b113.300126,40.076816","region_id":"3","area_code":"0352","nc_region_id":"100","type":"2"},{"id":"24","city_code":"402","standard_code":"441900","script_index":"2","agency_code":"ÔÁS","parent_id":"5","name":"¶«Ý¸","domain":"dg","database":"dongguan","pinyin":"dongguan","location":"b113.751765,23.020536","region_id":"2","area_code":"0769","nc_region_id":"101","type":"2"},{"id":"48","city_code":"503","standard_code":"510600","script_index":"3","agency_code":"´¨F","parent_id":"6","name":"µÂÑô","domain":"deyang","database":"others","pinyin":"deyang","location":"b104.398021,31.126856","region_id":"5","area_code":"0838","nc_region_id":"104","type":"2"},{"id":"59","city_code":"804","standard_code":"210600","script_index":"4","agency_code":"ÁÉF","parent_id":"9","name":"µ¤¶«","domain":"dandong","database":"others","pinyin":"dandong","location":"b124.384913,40.127344","region_id":"4","area_code":"0415","nc_region_id":"100","type":"2"},{"id":"98","city_code":"1405","standard_code":"230600","script_index":"5","agency_code":"ºÚE","parent_id":"15","name":"´óÇì","domain":"daqing","database":"others","pinyin":"daqing","location":"b125.104637,46.59019","region_id":"4","area_code":"0459","nc_region_id":"100","type":"2"},{"id":"117","city_code":"1505","standard_code":"370500","script_index":"5","agency_code":"Â³E","parent_id":"16","name":"¶«Óª","domain":"dongying","database":"others","pinyin":"dongying","location":"b118.674767,37.434751","region_id":"4","area_code":"0546","nc_region_id":"103","type":"2"},{"id":"378","city_code":"1804","standard_code":"469003","script_index":"4","agency_code":"ÇíF","parent_id":"19","name":"ÙÙÖÝ","domain":"danzhou","database":"others","pinyin":"danzhou","location":"b109.41397313258,19.571153091617","region_id":"2","area_code":"0898","nc_region_id":"101","type":"2"},{"id":"53","city_code":"508","standard_code":"511700","script_index":"8","agency_code":"´¨S","parent_id":"6","name":"´ïÖÝ","domain":"dazhou","database":"others","pinyin":"dazhou","location":"b107.468023,31.209572","region_id":"5","area_code":"0818","nc_region_id":"104","type":"2"},{"id":"237","city_code":"2808","standard_code":"532900","script_index":"8","agency_code":"ÔÆL","parent_id":"29","name":"´óÀí","domain":"dali","database":"others","pinyin":"dali","location":"b100.230098,25.591909","region_id":"5","area_code":"0872","nc_region_id":"104","type":"2"},{"id":"175","city_code":"2209","standard_code":"621100","script_index":"9","agency_code":"¸ÊJ","parent_id":"23","name":"¶¨Î÷","domain":"dingxi","database":"others","pinyin":"dingxi","location":"b104.623595791,35.5811552758","region_id":"3","area_code":"0932","nc_region_id":"103","type":"2"},{"id":"238","city_code":"2809","standard_code":"533100","script_index":"9","agency_code":"ÔÆN","parent_id":"29","name":"µÂºê","domain":"dehong","database":"others","pinyin":"dehong","location":"b98.582704,24.422867","region_id":"5","area_code":"0875","nc_region_id":"104","type":"2"},{"id":"303","city_code":"1412","standard_code":"232700","script_index":"12","agency_code":"ºÚP","parent_id":"15","name":"´óÐË°²Áë","domain":"daxinganling","database":"others","pinyin":"daxinganling","location":"b124.711081,52.335206","region_id":"4","area_code":"0457","nc_region_id":"100","type":"2"},{"id":"308","city_code":"1514","standard_code":"371400","script_index":"14","agency_code":"Â³N","parent_id":"16","name":"µÂÖÝ","domain":"dezhou","database":"others","pinyin":"dezhou","location":"b116.302595,37.450919","region_id":"4","area_code":"0534","nc_region_id":"103","type":"2"},{"id":"240","city_code":"2815","standard_code":"533400","script_index":"15","agency_code":"ÔÆR","parent_id":"29","name":"µÏÇì","domain":"diqing","database":"others","pinyin":"diqing","location":"b99.711154,27.818697","region_id":"5","area_code":"0887","nc_region_id":"104","type":"2"}],"E":[{"id":"150","city_code":"1905","standard_code":"150600","script_index":"5","agency_code":"ÃÉK","parent_id":"20","name":"¶õ¶û¶àË¹","domain":"eerduosi","database":"others","pinyin":"eerduosi","location":"b109.781327,39.608266","region_id":"8","area_code":"0477","nc_region_id":"100","type":"2"},{"id":"201","city_code":"2507","standard_code":"420700","script_index":"7","agency_code":"¶õG","parent_id":"26","name":"¶õÖÝ","domain":"ezhou","database":"others","pinyin":"ezhou","location":"b114.894843,30.39194","region_id":"6","area_code":"0711","nc_region_id":"103","type":"2"},{"id":"331","city_code":"2514","standard_code":"422800","script_index":"14","agency_code":"¶õQ","parent_id":"26","name":"¶÷Ê©","domain":"enshi","database":"others","pinyin":"enshi","location":"b109.488162,30.272204","region_id":"6","area_code":"0718","nc_region_id":"103","type":"2"}],"F":[{"id":"75","city_code":"1000","standard_code":"350100","script_index":"0","agency_code":"ÃöA","parent_id":"11","name":"¸£ÖÝ","domain":"fz","database":"fuzhou","pinyin":"fuzhou","location":"b119.296494,26.074508","region_id":"6","area_code":"0591","nc_region_id":"101","type":"2"},{"id":"58","city_code":"803","standard_code":"210400","script_index":"3","agency_code":"ÁÉD","parent_id":"9","name":"¸§Ë³","domain":"fushun","database":"others","pinyin":"fushun","location":"b123.957208,41.880872","region_id":"4","area_code":"024","nc_region_id":"100","type":"2"},{"id":"20","city_code":"405","standard_code":"440600","script_index":"5","agency_code":"ÔÁE","parent_id":"5","name":"·ðÉ½","domain":"foshan","database":"others","pinyin":"foshan","location":"b113.121416,23.021548","region_id":"2","area_code":"0757","nc_region_id":"101","type":"2"},{"id":"129","city_code":"1606","standard_code":"341200","script_index":"6","agency_code":"ÍîK","parent_id":"17","name":"¸·Ñô","domain":"fuyang","database":"others","pinyin":"fuyang","location":"b115.814144,32.890124","region_id":"7","area_code":"0558","nc_region_id":"103","type":"2"},{"id":"287","city_code":"811","standard_code":"210900","script_index":"11","agency_code":"ÁÉJ","parent_id":"9","name":"¸·ÐÂ","domain":"fuxin","database":"others","pinyin":"fuxin","location":"b121.670325,42.021619","region_id":"4","area_code":"0418","nc_region_id":"100","type":"2"},{"id":"318","city_code":"1711","standard_code":"450600","script_index":"11","agency_code":"¹ðP","parent_id":"18","name":"·À³Ç¸Û","domain":"fangchenggang","database":"others","pinyin":"fangchenggang","location":"b108.347253,21.615298","region_id":"2","area_code":"0770","nc_region_id":"101","type":"2"}],"G":[{"id":"16","city_code":"400","standard_code":"440100","script_index":"0","agency_code":"ÔÁA","parent_id":"5","name":"¹ãÖÝ","domain":"gz","database":"guangzhou","pinyin":"guangzhou","location":"b113.264435,23.129163","region_id":"2","area_code":"020","nc_region_id":"101","type":"2"},{"id":"36","city_code":"700","standard_code":"520100","script_index":"0","agency_code":"¹óA","parent_id":"8","name":"¹óÑô","domain":"gy","database":"guiyang","pinyin":"guiyang","location":"b106.630104,26.647481","region_id":"5","area_code":"0851","nc_region_id":"104","type":"2"},{"id":"134","city_code":"1701","standard_code":"450300","script_index":"1","agency_code":"¹ðC","parent_id":"18","name":"¹ðÁÖ","domain":"gl","database":"guilin","pinyin":"guilin","location":"b110.290195,25.273566","region_id":"2","area_code":"0773","nc_region_id":"101","type":"2"},{"id":"341","city_code":"2103","standard_code":"640400","script_index":"3","agency_code":"ÄþD","parent_id":"22","name":"¹ÌÔ­","domain":"guyuan","database":"others","pinyin":"guyuan","location":"b106.24261,36.015855","region_id":"3","area_code":"0954","nc_region_id":"103","type":"2"},{"id":"137","city_code":"1705","standard_code":"450800","script_index":"5","agency_code":"¹ðR","parent_id":"18","name":"¹ó¸Û","domain":"guigang","database":"others","pinyin":"guigang","location":"b109.598927,23.111531","region_id":"2","area_code":"0775","nc_region_id":"101","type":"2"},{"id":"191","city_code":"2405","standard_code":"632600","script_index":"5","agency_code":"ÇàF","parent_id":"25","name":"¹ûÂå","domain":"guoluo","database":"others","pinyin":"guoluo","location":"b100.245027,34.471675","region_id":"3","area_code":"0975","nc_region_id":"103","type":"2"},{"id":"220","city_code":"2706","standard_code":"360700","script_index":"6","agency_code":"¸ÓB","parent_id":"28","name":"¸ÓÖÝ","domain":"ganzhou","database":"others","pinyin":"ganzhou","location":"b114.933553,25.829209","region_id":"6","area_code":"0797","nc_region_id":"101","type":"2"},{"id":"275","city_code":"511","standard_code":"510800","script_index":"11","agency_code":"´¨H","parent_id":"6","name":"¹ãÔª","domain":"guangyuan","database":"others","pinyin":"guangyuan","location":"b105.843357,32.435435","region_id":"5","area_code":"0839","nc_region_id":"104","type":"2"},{"id":"326","city_code":"2213","standard_code":"623000","script_index":"13","agency_code":"¸ÊP","parent_id":"23","name":"¸ÊÄÏ","domain":"gannan","database":"others","pinyin":"gannan","location":"b102.911262,34.983296","region_id":"3","area_code":"0941","nc_region_id":"103","type":"2"},{"id":"278","city_code":"514","standard_code":"511600","script_index":"14","agency_code":"´¨X","parent_id":"6","name":"¹ã°²","domain":"guangan","database":"others","pinyin":"guangan","location":"b106.633204,30.45593","region_id":"5","area_code":"0826","nc_region_id":"104","type":"2"},{"id":"284","city_code":"520","standard_code":"513300","script_index":"20","agency_code":"´¨V","parent_id":"6","name":"¸Ê×Î","domain":"ganzi","database":"others","pinyin":"ganzi","location":"b101.962311,30.04952","region_id":"5","area_code":"0836","nc_region_id":"104","type":"2"}],"H":[{"id":"26","city_code":"600","standard_code":"330100","script_index":"0","agency_code":"ÕãA","parent_id":"7","name":"º¼ÖÝ","domain":"hz","database":"hangzhou","pinyin":"hangzhou","location":"b120.155069,30.274089","region_id":"1","area_code":"0571","nc_region_id":"102","type":"2"},{"id":"93","city_code":"1400","standard_code":"230100","script_index":"0","agency_code":"ºÚA","parent_id":"15","name":"¹þ¶û±õ","domain":"hrb","database":"haerbin","pinyin":"haerbin","location":"b126.534967,45.803775","region_id":"4","area_code":"0451","nc_region_id":"100","type":"2"},{"id":"123","city_code":"1600","standard_code":"340100","script_index":"0","agency_code":"ÍîA","parent_id":"17","name":"ºÏ·Ê","domain":"hf","database":"hefei","pinyin":"hefei","location":"b117.227271,31.821448","region_id":"7","area_code":"0551","nc_region_id":"103","type":"2"},{"id":"143","city_code":"1800","standard_code":"460100","script_index":"0","agency_code":"ÇíA","parent_id":"19","name":"º£¿Ú","domain":"hn","database":"haikou","pinyin":"haikou","location":"b110.328873,20.030765","region_id":"2","area_code":"0898","nc_region_id":"101","type":"2"},{"id":"145","city_code":"1900","standard_code":"150100","script_index":"0","agency_code":"ÃÉA","parent_id":"20","name":"ºôºÍºÆÌØ","domain":"nmg","database":"huhehaote","pinyin":"huhehaote","location":"b111.748847,40.84231","region_id":"8","area_code":"0471","nc_region_id":"100","type":"2"},{"id":"187","city_code":"2401","standard_code":"630200","script_index":"1","agency_code":"ÇàB","parent_id":"25","name":"º£¶«","domain":"haidong","database":"others","pinyin":"haidong","location":"b102.104346,36.502216","region_id":"3","area_code":"0972","nc_region_id":"103","type":"2"},{"id":"195","city_code":"2501","standard_code":"420200","script_index":"1","agency_code":"¶õB","parent_id":"26","name":"»ÆÊ¯","domain":"huangshi","database":"others","pinyin":"huangshi","location":"b115.03852,30.199652","region_id":"6","area_code":"0714","nc_region_id":"103","type":"2"},{"id":"4","city_code":"1102","standard_code":"130400","script_index":"2","agency_code":"¼½D","parent_id":"12","name":"ºªµ¦","domain":"handan","database":"others","pinyin":"handan","location":"b114.492968,36.612267","region_id":"3","area_code":"0310","nc_region_id":"100","type":"2"},{"id":"188","city_code":"2402","standard_code":"632200","script_index":"2","agency_code":"ÇàC","parent_id":"25","name":"º£±±","domain":"haibei","database":"others","pinyin":"haibei","location":"b100.900931,36.954273","region_id":"3","area_code":"0970","nc_region_id":"103","type":"2"},{"id":"96","city_code":"1403","standard_code":"230400","script_index":"3","agency_code":"ºÚH","parent_id":"15","name":"º×¸Ú","domain":"hegang","database":"others","pinyin":"hegang","location":"b130.298101,47.349935","region_id":"4","area_code":"0468","nc_region_id":"100","type":"2"},{"id":"189","city_code":"2403","standard_code":"632300","script_index":"3","agency_code":"ÇàD","parent_id":"25","name":"»ÆÄÏ","domain":"huangnan","database":"others","pinyin":"huangnan","location":"b102.015248,35.519549","region_id":"3","area_code":"0973","nc_region_id":"103","type":"2"},{"id":"207","city_code":"2603","standard_code":"430400","script_index":"3","agency_code":"ÏæD","parent_id":"27","name":"ºâÑô","domain":"hengyang","database":"others","pinyin":"hengyang","location":"b112.5719,26.89384","region_id":"6","area_code":"0734","nc_region_id":"103","type":"2"},{"id":"244","city_code":"2903","standard_code":"652200","script_index":"3","agency_code":"ÐÂL","parent_id":"30","name":"¹þÃÜ","domain":"hami","database":"others","pinyin":"hami","location":"b93.514917,42.818501","region_id":"3","area_code":"0902","nc_region_id":"103","type":"2"},{"id":"30","city_code":"604","standard_code":"330500","script_index":"4","agency_code":"ÕãE","parent_id":"7","name":"ºþÖÝ","domain":"huzhou","database":"others","pinyin":"huzhou","location":"b120.086818,30.89436","region_id":"1","area_code":"0572","nc_region_id":"102","type":"2"},{"id":"107","city_code":"1204","standard_code":"410600","script_index":"4","agency_code":"Ô¥F","parent_id":"13","name":"º×±Ú","domain":"hebi","database":"others","pinyin":"hebi","location":"b114.297273,35.747225","region_id":"6","area_code":"0392","nc_region_id":"103","type":"2"},{"id":"190","city_code":"2404","standard_code":"632500","script_index":"4","agency_code":"ÇàE","parent_id":"25","name":"º£ÄÏÖÝ","domain":"hainanzhou","database":"others","pinyin":"hainanzhou","location":"b100.620373,36.286438","region_id":"3","area_code":"0974","nc_region_id":"103","type":"2"},{"id":"245","city_code":"2904","standard_code":"653200","script_index":"4","agency_code":"ÐÂR","parent_id":"30","name":"ºÍÌï","domain":"hetian","database":"others","pinyin":"hetian","location":"b79.913534,37.112148","region_id":"3","area_code":"0903","nc_region_id":"103","type":"2"},{"id":"234","city_code":"2805","standard_code":"532500","script_index":"5","agency_code":"ÔÆG","parent_id":"29","name":"ºìºÓ","domain":"honghe","database":"others","pinyin":"honghe","location":"b103.374799,23.36313","region_id":"5","area_code":"0873","nc_region_id":"104","type":"2"},{"id":"99","city_code":"1406","standard_code":"230700","script_index":"6","agency_code":"ºÚF","parent_id":"15","name":"ÒÁ´º","domain":"hljyichun","database":"others","pinyin":"hljyichun","location":"b128.840661,47.727542","region_id":"4","area_code":"0458","nc_region_id":"100","type":"2"},{"id":"151","city_code":"1906","standard_code":"150700","script_index":"6","agency_code":"ÃÉE","parent_id":"20","name":"ºôÂ×±´¶û","domain":"hulunbeier","database":"others","pinyin":"hulunbeier","location":"b119.765739,49.211572","region_id":"8","area_code":"0470","nc_region_id":"100","type":"2"},{"id":"182","city_code":"2306","standard_code":"610700","script_index":"6","agency_code":"ÉÂF","parent_id":"24","name":"ººÖÐ","domain":"hanzhong","database":"others","pinyin":"hanzhong","location":"b107.023329,33.067915","region_id":"3","area_code":"0916","nc_region_id":"103","type":"2"},{"id":"72","city_code":"907","standard_code":"320800","script_index":"7","agency_code":"ËÕH","parent_id":"10","name":"»´°²","domain":"huaian","database":"others","pinyin":"huaian","location":"b119.015288,33.61036","region_id":"7","area_code":"0517","nc_region_id":"102","type":"2"},{"id":"193","city_code":"2407","standard_code":"632800","script_index":"7","agency_code":"ÇàH","parent_id":"25","name":"º£Î÷","domain":"haixi","database":"others","pinyin":"haixi","location":"b97.369752,37.377139","region_id":"3","area_code":"0979","nc_region_id":"103","type":"2"},{"id":"23","city_code":"408","standard_code":"441300","script_index":"8","agency_code":"ÔÁL","parent_id":"5","name":"»ÝÖÝ","domain":"huizhou","database":"others","pinyin":"huizhou","location":"b114.416196,23.111847","region_id":"2","area_code":"0752","nc_region_id":"101","type":"2"},{"id":"101","city_code":"1408","standard_code":"231100","script_index":"8","agency_code":"ºÚN","parent_id":"15","name":"ºÚºÓ","domain":"heihe","database":"others","pinyin":"heihe","location":"b127.52846,50.245297","region_id":"4","area_code":"0456","nc_region_id":"100","type":"2"},{"id":"140","city_code":"1708","standard_code":"451200","script_index":"8","agency_code":"¹ðM","parent_id":"18","name":"ºÓ³Ø","domain":"hechi","database":"others","pinyin":"hechi","location":"b108.085261,24.692931","region_id":"2","area_code":"0778","nc_region_id":"101","type":"2"},{"id":"64","city_code":"809","standard_code":"211400","script_index":"9","agency_code":"ÁÉP","parent_id":"9","name":"ºùÂ«µº","domain":"huludao","database":"others","pinyin":"huludao","location":"b120.836827,40.710953","region_id":"4","area_code":"0429","nc_region_id":"100","type":"2"},{"id":"11","city_code":"1110","standard_code":"131100","script_index":"10","agency_code":"¼½T","parent_id":"12","name":"ºâË®","domain":"hengshui","database":"others","pinyin":"hengshui","location":"b115.69868,37.735302","region_id":"3","area_code":"0318","nc_region_id":"100","type":"2"},{"id":"310","city_code":"1610","standard_code":"340400","script_index":"10","agency_code":"ÍîD","parent_id":"17","name":"»´ÄÏ","domain":"huainan","database":"others","pinyin":"huainan","location":"b116.999933,32.625478","region_id":"7","area_code":"0554","nc_region_id":"103","type":"2"},{"id":"311","city_code":"1611","standard_code":"340600","script_index":"11","agency_code":"ÍîF","parent_id":"17","name":"»´±±","domain":"huaibei","database":"others","pinyin":"huaibei","location":"b116.798265,33.955845","region_id":"7","area_code":"0561","nc_region_id":"103","type":"2"},{"id":"328","city_code":"2511","standard_code":"421100","script_index":"11","agency_code":"¶õJ","parent_id":"26","name":"»Æ¸Ô","domain":"huanggang","database":"others","pinyin":"huanggang","location":"b114.872316,30.453906","region_id":"6","area_code":"0713","nc_region_id":"103","type":"2"},{"id":"319","city_code":"1712","standard_code":"451100","script_index":"12","agency_code":"¹ðJ","parent_id":"18","name":"ºØÖÝ","domain":"hezhou","database":"others","pinyin":"hezhou","location":"b111.566753,24.40357","region_id":"2","area_code":"0774","nc_region_id":"101","type":"2"},{"id":"336","city_code":"2612","standard_code":"431200","script_index":"12","agency_code":"ÏæN","parent_id":"27","name":"»³»¯","domain":"huaihua","database":"others","pinyin":"huaihua","location":"b109.998488,27.554978","region_id":"6","area_code":"0745","nc_region_id":"103","type":"2"},{"id":"313","city_code":"1613","standard_code":"341000","script_index":"13","agency_code":"ÍîJ","parent_id":"17","name":"»ÆÉ½","domain":"huangshan","database":"others","pinyin":"huangshan","location":"b118.337476,29.714683","region_id":"7","area_code":"0559","nc_region_id":"103","type":"2"},{"id":"268","city_code":"415","standard_code":"441600","script_index":"15","agency_code":"ÔÁP","parent_id":"5","name":"ºÓÔ´","domain":"heyuan","database":"others","pinyin":"heyuan","location":"b114.70045,23.743538","region_id":"2","area_code":"0762","nc_region_id":"101","type":"2"},{"id":"338","city_code":"1516","standard_code":"371700","script_index":"16","agency_code":"Â³R","parent_id":"16","name":"ºÊÔó","domain":"heze","database":"others","pinyin":"heze","location":"b115.480656,35.23375","region_id":"4","area_code":"0530","nc_region_id":"103","type":"2"}],"J":[{"id":"113","city_code":"1500","standard_code":"370100","script_index":"0","agency_code":"Â³A","parent_id":"16","name":"¼ÃÄÏ","domain":"jn","database":"jinan","pinyin":"jinan","location":"b116.994917,36.665282","region_id":"4","area_code":"0531","nc_region_id":"103","type":"2"},{"id":"85","city_code":"1301","standard_code":"220200","script_index":"1","agency_code":"¼ªB","parent_id":"14","name":"¼ªÁÖ","domain":"jilin","database":"others","pinyin":"jilinshi","location":"b126.549572,43.837883","region_id":"4","area_code":"0432","nc_region_id":"100","type":"2"},{"id":"167","city_code":"2201","standard_code":"620300","script_index":"1","agency_code":"¸ÊC","parent_id":"23","name":"½ð²ý","domain":"jinchang","database":"others","pinyin":"jinchang","location":"b102.188043,38.520089","region_id":"3","area_code":"0935","nc_region_id":"103","type":"2"},{"id":"215","city_code":"2701","standard_code":"360200","script_index":"1","agency_code":"¸ÓH","parent_id":"28","name":"¾°µÂÕò","domain":"jingdezhen","database":"others","pinyin":"jingdezhen","location":"b117.181566,29.307094","region_id":"6","area_code":"0798","nc_region_id":"101","type":"2"},{"id":"95","city_code":"1402","standard_code":"230300","script_index":"2","agency_code":"ºÚG","parent_id":"15","name":"¼¦Î÷","domain":"jixi","database":"others","pinyin":"jixi","location":"b130.969333,45.295075","region_id":"4","area_code":"0467","nc_region_id":"100","type":"2"},{"id":"29","city_code":"603","standard_code":"330400","script_index":"3","agency_code":"ÕãF","parent_id":"7","name":"¼ÎÐË","domain":"jiaxing","database":"others","pinyin":"jiaxing","location":"b120.758543,30.753924","region_id":"1","area_code":"0573","nc_region_id":"102","type":"2"},{"id":"106","city_code":"1203","standard_code":"410800","script_index":"3","agency_code":"Ô¥H","parent_id":"13","name":"½¹×÷","domain":"jiaozuo","database":"others","pinyin":"jiaozuo","location":"b113.241823,35.215893","region_id":"6","area_code":"0391","nc_region_id":"103","type":"2"},{"id":"217","city_code":"2703","standard_code":"360400","script_index":"3","agency_code":"¸ÓG","parent_id":"28","name":"¾Å½­","domain":"jiujiang","database":"others","pinyin":"jiujiang","location":"b116.001982,29.705096","region_id":"6","area_code":"0792","nc_region_id":"101","type":"2"},{"id":"159","city_code":"2004","standard_code":"140500","script_index":"4","agency_code":"½úE","parent_id":"21","name":"½ú³Ç","domain":"jincheng","database":"others","pinyin":"jincheng","location":"b112.851768,35.49087","region_id":"3","area_code":"0356","nc_region_id":"100","type":"2"},{"id":"198","city_code":"2504","standard_code":"421000","script_index":"4","agency_code":"¶õM","parent_id":"26","name":"¾£ÖÝ","domain":"jingzhou","database":"others","pinyin":"jingzhou","location":"b112.239741,30.335165","region_id":"6","area_code":"0716","nc_region_id":"103","type":"2"},{"id":"60","city_code":"805","standard_code":"210700","script_index":"5","agency_code":"ÁÉG","parent_id":"9","name":"½õÖÝ","domain":"jinzhou","database":"others","pinyin":"jinzhou","location":"b121.127063,41.095123","region_id":"4","area_code":"0416","nc_region_id":"100","type":"2"},{"id":"21","city_code":"406","standard_code":"440700","script_index":"6","agency_code":"ÔÁJ","parent_id":"5","name":"½­ÃÅ","domain":"jiangmen","database":"others","pinyin":"jiangmen","location":"b113.081831,22.578723","region_id":"2","area_code":"0750","nc_region_id":"101","type":"2"},{"id":"32","city_code":"606","standard_code":"330700","script_index":"6","agency_code":"ÕãG","parent_id":"7","name":"½ð»ª","domain":"jinhua","database":"others","pinyin":"jinhua","location":"b119.647421,29.079164","region_id":"1","area_code":"0579","nc_region_id":"102","type":"2"},{"id":"161","city_code":"2006","standard_code":"140700","script_index":"6","agency_code":"½úK","parent_id":"21","name":"½úÖÐ","domain":"jinzhong","database":"others","pinyin":"jinzhong","location":"b112.752695,37.687024","region_id":"3","area_code":"0354","nc_region_id":"100","type":"2"},{"id":"200","city_code":"2506","standard_code":"420800","script_index":"6","agency_code":"¶õH","parent_id":"26","name":"¾£ÃÅ","domain":"jingmen","database":"others","pinyin":"jingmen","location":"b112.199265,31.035423","region_id":"6","area_code":"0724","nc_region_id":"103","type":"2"},{"id":"100","city_code":"1407","standard_code":"230800","script_index":"7","agency_code":"ºÚD","parent_id":"15","name":"¼ÑÄ¾Ë¹","domain":"jiamusi","database":"others","pinyin":"jiamusi","location":"b130.318917,46.799923","region_id":"4","area_code":"0454","nc_region_id":"100","type":"2"},{"id":"173","city_code":"2207","standard_code":"620900","script_index":"7","agency_code":"¸ÊF","parent_id":"23","name":"¾ÆÈª","domain":"jiuquan","database":"others","pinyin":"jiuquan","location":"b98.494411,39.732488","region_id":"3","area_code":"0937","nc_region_id":"103","type":"2"},{"id":"221","city_code":"2708","standard_code":"360800","script_index":"8","agency_code":"¸ÓD","parent_id":"28","name":"¼ª°²","domain":"jian","database":"others","pinyin":"jian","location":"b114.992913,27.113039","region_id":"6","area_code":"0796","nc_region_id":"101","type":"2"},{"id":"112","city_code":"1209","standard_code":"419001","script_index":"9","agency_code":"Ô¥U","parent_id":"13","name":"¼ÃÔ´","domain":"jiyuan","database":"others","pinyin":"jiyuan","location":"b112.60247,35.067003","region_id":"6","area_code":"0391","nc_region_id":"103","type":"2"},{"id":"223","city_code":"2709","standard_code":"361000","script_index":"9","agency_code":"¸ÓF","parent_id":"28","name":"¸§ÖÝ","domain":"jxfuzhou","database":"others","pinyin":"jxfuzhou","location":"b116.358176,27.9492","region_id":"6","area_code":"0794","nc_region_id":"101","type":"2"},{"id":"222","city_code":"2710","standard_code":"360900","script_index":"10","agency_code":"¸ÓC","parent_id":"28","name":"ÒË´º","domain":"jxyichun","database":"others","pinyin":"jxyichun","location":"b114.395108,27.796561","region_id":"6","area_code":"0795","nc_region_id":"101","type":"2"},{"id":"304","city_code":"1510","standard_code":"370800","script_index":"10","agency_code":"Â³H","parent_id":"16","name":"¼ÃÄþ","domain":"jining","database":"others","pinyin":"jining","location":"b116.587259,35.414864","region_id":"4","area_code":"0537","nc_region_id":"103","type":"2"},{"id":"343","city_code":"2210","standard_code":"620200","script_index":"10","agency_code":"¸ÊB","parent_id":"23","name":"¼ÎÓø¹Ø","domain":"jiayuguan","database":"others","pinyin":"jiayuguan","location":"b98.289152,39.77313","region_id":"3","area_code":"0937","nc_region_id":"103","type":"2"},{"id":"291","city_code":"911","standard_code":"321200","script_index":"11","agency_code":"ËÕM","parent_id":"10","name":"Ì©ÖÝ","domain":"jstaizhou","database":"others","pinyin":"jstaizhou","location":"b119.923116,32.455778","region_id":"7","area_code":"0523","nc_region_id":"102","type":"2"},{"id":"379","city_code":"1517","standard_code":"370281","script_index":"17","agency_code":"Â³B,Â³U","parent_id":"16","name":"½ºÖÝ","domain":"jiaozhou","database":"others","pinyin":"jiaozhou","location":"b120.014182,36.290049","region_id":"4","area_code":"0532","nc_region_id":"103","type":"2"},{"id":"380","city_code":"1518","standard_code":"370282","script_index":"18","agency_code":"Â³B,Â³U","parent_id":"16","name":"¼´Ä«","domain":"jimo","database":"others","pinyin":"jimo","location":"b120.460309,36.398255","region_id":"4","area_code":"0532","nc_region_id":"103","type":"2"},{"id":"272","city_code":"419","standard_code":"445200","script_index":"19","agency_code":"ÔÁV","parent_id":"5","name":"½ÒÑô","domain":"jieyang","database":"others","pinyin":"jieyang","location":"b116.372831,23.549993","region_id":"2","area_code":"0663","nc_region_id":"101","type":"2"}],"K":[{"id":"225","city_code":"2800","standard_code":"530100","script_index":"0","agency_code":"ÔÆA","parent_id":"29","name":"À¥Ã÷","domain":"km","database":"kunming","pinyin":"kunming","location":"b102.722202,25.037721","region_id":"5","area_code":"0871","nc_region_id":"104","type":"2"},{"id":"242","city_code":"2901","standard_code":"650200","script_index":"1","agency_code":"ÐÂJ","parent_id":"30","name":"¿ËÀ­ÂêÒÀ","domain":"kelamayi","database":"others","pinyin":"kelamayi","location":"b84.889207,45.579889","region_id":"3","area_code":"0990","nc_region_id":"103","type":"2"},{"id":"247","city_code":"2906","standard_code":"653100","script_index":"6","agency_code":"ÐÂQ","parent_id":"30","name":"¿¦Ê²","domain":"kashi","database":"others","pinyin":"kashi","location":"b75.99379,39.467686","region_id":"3","area_code":"0998","nc_region_id":"103","type":"2"},{"id":"248","city_code":"2910","standard_code":"653000","script_index":"10","agency_code":"ÐÂP","parent_id":"30","name":"¿Ë×ÎÀÕËÕ","domain":"kezilesu","database":"others","pinyin":"kezilesu","location":"b76.167644,39.714556","region_id":"3","area_code":"0908","nc_region_id":"103","type":"2"},{"id":"293","city_code":"1210","standard_code":"410200","script_index":"10","agency_code":"Ô¥B","parent_id":"13","name":"¿ª·â","domain":"kaifeng","database":"others","pinyin":"kaifeng","location":"b114.307624,34.797683","region_id":"6","area_code":"0371","nc_region_id":"103","type":"2"},{"id":"383","city_code":"913","standard_code":"320583","script_index":"13","agency_code":"ËÕE","parent_id":"10","name":"À¥É½","domain":"kunshan","database":"others","pinyin":"kunshan","location":"b120.997428,31.384689","region_id":"7","area_code":"0512","nc_region_id":"102","type":"2"},{"id":"373","city_code":"2915","standard_code":"652801","script_index":"15","agency_code":"ÐÂM","parent_id":"30","name":"¿â¶ûÀÕ","domain":"kuerle","database":"others","pinyin":"kuerle","location":"b86.155288,41.766023","region_id":"3","area_code":"0996","nc_region_id":"103","type":"2"}],"L":[{"id":"166","city_code":"2200","standard_code":"620100","script_index":"0","agency_code":"¸ÊA","parent_id":"23","name":"À¼ÖÝ","domain":"lz","database":"lanzhou","pinyin":"lanzhou","location":"b103.834377,36.061255","region_id":"3","area_code":"0931","nc_region_id":"103","type":"2"},{"id":"256","city_code":"3000","standard_code":"540100","script_index":"0","agency_code":"²ØA","parent_id":"31","name":"À­Èø","domain":"xz","database":"lasa","pinyin":"lasa","location":"b91.140856,29.645554","region_id":"3","area_code":"0891","nc_region_id":"103","type":"2"},{"id":"37","city_code":"701","standard_code":"520200","script_index":"1","agency_code":"¹óB","parent_id":"8","name":"ÁùÅÌË®","domain":"liupanshui","database":"others","pinyin":"liupanshui","location":"b104.830361,26.592663","region_id":"5","area_code":"0858","nc_region_id":"104","type":"2"},{"id":"104","city_code":"1201","standard_code":"410300","script_index":"1","agency_code":"Ô¥C","parent_id":"13","name":"ÂåÑô","domain":"luoyang","database":"others","pinyin":"luoyang","location":"b112.454363,34.618154","region_id":"6","area_code":"0379","nc_region_id":"103","type":"2"},{"id":"47","city_code":"502","standard_code":"510500","script_index":"2","agency_code":"´¨E","parent_id":"6","name":"ãòÖÝ","domain":"luzhou","database":"others","pinyin":"luzhou","location":"b105.442263,28.871864","region_id":"5","area_code":"0830","nc_region_id":"104","type":"2"},{"id":"133","city_code":"1702","standard_code":"450200","script_index":"2","agency_code":"¹ðB","parent_id":"18","name":"ÁøÖÝ","domain":"liuzhou","database":"others","pinyin":"liuzhou","location":"b109.415912,24.325468","region_id":"2","area_code":"0772","nc_region_id":"101","type":"2"},{"id":"87","city_code":"1303","standard_code":"220400","script_index":"3","agency_code":"¼ªD","parent_id":"14","name":"ÁÉÔ´","domain":"liaoyuan","database":"others","pinyin":"liaoyuan","location":"b125.143532,42.887918","region_id":"4","area_code":"0437","nc_region_id":"100","type":"2"},{"id":"54","city_code":"506","standard_code":"513400","script_index":"6","agency_code":"´¨W","parent_id":"6","name":"Á¹É½","domain":"liangshan","database":"others","pinyin":"liangshan","location":"b102.267726,27.881429","region_id":"5","area_code":"0834","nc_region_id":"104","type":"2"},{"id":"71","city_code":"906","standard_code":"320700","script_index":"6","agency_code":"ËÕG","parent_id":"10","name":"Á¬ÔÆ¸Û","domain":"lianyungang","database":"others","pinyin":"lianyungang","location":"b119.221282,34.596544","region_id":"7","area_code":"0518","nc_region_id":"102","type":"2"},{"id":"262","city_code":"3006","standard_code":"540400","script_index":"6","agency_code":"²ØG","parent_id":"31","name":"ÁÖÖ¥","domain":"linzhi","database":"others","pinyin":"linzhi","location":"b94.36149,29.649128","region_id":"3","area_code":"0894","nc_region_id":"103","type":"2"},{"id":"50","city_code":"507","standard_code":"511100","script_index":"7","agency_code":"´¨L","parent_id":"6","name":"ÀÖÉ½","domain":"leshan","database":"others","pinyin":"leshan","location":"b103.765623,29.552064","region_id":"5","area_code":"0833","nc_region_id":"104","type":"2"},{"id":"62","city_code":"807","standard_code":"211000","script_index":"7","agency_code":"ÁÉK","parent_id":"9","name":"ÁÉÑô","domain":"liaoyang","database":"others","pinyin":"liaoyang","location":"b123.172838,41.269493","region_id":"4","area_code":"0419","nc_region_id":"100","type":"2"},{"id":"82","city_code":"1007","standard_code":"350800","script_index":"7","agency_code":"ÃöF","parent_id":"11","name":"ÁúÑÒ","domain":"longyan","database":"others","pinyin":"longyan","location":"b117.03403,25.100632","region_id":"6","area_code":"0597","nc_region_id":"101","type":"2"},{"id":"10","city_code":"1108","standard_code":"131000","script_index":"8","agency_code":"¼½R","parent_id":"12","name":"ÀÈ·»","domain":"langfang","database":"others","pinyin":"langfang","location":"b116.706651,39.521017","region_id":"3","area_code":"0316","nc_region_id":"100","type":"2"},{"id":"110","city_code":"1208","standard_code":"411100","script_index":"8","agency_code":"Ô¥L","parent_id":"13","name":"äðºÓ","domain":"luohe","database":"others","pinyin":"luohe","location":"b114.016539,33.581413","region_id":"6","area_code":"0395","nc_region_id":"103","type":"2"},{"id":"121","city_code":"1508","standard_code":"371200","script_index":"8","agency_code":"Â³M","parent_id":"16","name":"À³Îß","domain":"laiwu","database":"others","pinyin":"laiwu","location":"b117.676731,36.213691","region_id":"4","area_code":"0634","nc_region_id":"103","type":"2"},{"id":"132","city_code":"1609","standard_code":"341500","script_index":"9","agency_code":"ÍîN","parent_id":"17","name":"Áù°²","domain":"luan","database":"others","pinyin":"luan","location":"b116.505693,31.745011","region_id":"7","area_code":"0564","nc_region_id":"103","type":"2"},{"id":"141","city_code":"1709","standard_code":"451300","script_index":"9","agency_code":"¹ðG","parent_id":"18","name":"À´±ö","domain":"laibin","database":"others","pinyin":"laibin","location":"b109.22146,23.750312","region_id":"2","area_code":"0772","nc_region_id":"101","type":"2"},{"id":"164","city_code":"2009","standard_code":"141000","script_index":"9","agency_code":"½úL","parent_id":"21","name":"ÁÙ·Ú","domain":"linfen","database":"others","pinyin":"linfen","location":"b111.51888,36.088067","region_id":"3","area_code":"0357","nc_region_id":"100","type":"2"},{"id":"213","city_code":"2609","standard_code":"431300","script_index":"9","agency_code":"ÏæK","parent_id":"27","name":"Â¦µ×","domain":"loudi","database":"others","pinyin":"loudi","location":"b111.996001,27.701693","region_id":"6","area_code":"0738","nc_region_id":"103","type":"2"},{"id":"230","city_code":"2810","standard_code":"530700","script_index":"10","agency_code":"ÔÆP","parent_id":"29","name":"Àö½­","domain":"lijiang","database":"others","pinyin":"lijiang","location":"b100.230376,26.876774","region_id":"5","area_code":"0888","nc_region_id":"104","type":"2"},{"id":"285","city_code":"610","standard_code":"331100","script_index":"10","agency_code":"ÕãK","parent_id":"7","name":"ÀöË®","domain":"lishui","database":"others","pinyin":"lishui","location":"b119.922796,28.46763","region_id":"1","area_code":"0578","nc_region_id":"102","type":"2"},{"id":"323","city_code":"2010","standard_code":"141100","script_index":"10","agency_code":"½úJ","parent_id":"21","name":"ÂÀÁº","domain":"lvliang","database":"others","pinyin":"lvliang","location":"b111.144231,37.518569","region_id":"3","area_code":"0358","nc_region_id":"100","type":"2"},{"id":"324","city_code":"2211","standard_code":"621200","script_index":"11","agency_code":"¸ÊK","parent_id":"23","name":"Â¤ÄÏ","domain":"longnan","database":"others","pinyin":"longnan","location":"b104.922071,33.400766","region_id":"3","area_code":"0939","nc_region_id":"103","type":"2"},{"id":"232","city_code":"2812","standard_code":"530900","script_index":"12","agency_code":"ÔÆS","parent_id":"29","name":"ÁÙ²×","domain":"lincang","database":"others","pinyin":"lincang","location":"b100.078333091,23.8801580656","region_id":"5","area_code":"0883","nc_region_id":"104","type":"2"},{"id":"325","city_code":"2212","standard_code":"622900","script_index":"12","agency_code":"¸ÊN","parent_id":"23","name":"ÁÙÏÄ","domain":"linxia","database":"others","pinyin":"linxia","location":"b103.210539,35.601182","region_id":"3","area_code":"0930","nc_region_id":"103","type":"2"},{"id":"307","city_code":"1513","standard_code":"371300","script_index":"13","agency_code":"Â³Q","parent_id":"16","name":"ÁÙÒÊ","domain":"linyi","database":"others","pinyin":"linyi","location":"b118.347707,35.051712","region_id":"4","area_code":"0539","nc_region_id":"103","type":"2"},{"id":"309","city_code":"1515","standard_code":"371500","script_index":"15","agency_code":"Â³P","parent_id":"16","name":"ÁÄ³Ç","domain":"liaocheng","database":"others","pinyin":"liaocheng","location":"b115.985371,36.456704","region_id":"4","area_code":"0635","nc_region_id":"103","type":"2"}],"M":[{"id":"126","city_code":"1603","standard_code":"340500","script_index":"3","agency_code":"ÍîE","parent_id":"17","name":"Âí°°É½","domain":"maanshan","database":"others","pinyin":"maanshan","location":"b118.504657,31.696788","region_id":"7","area_code":"0555","nc_region_id":"103","type":"2"},{"id":"49","city_code":"504","standard_code":"510700","script_index":"4","agency_code":"´¨B","parent_id":"6","name":"ÃàÑô","domain":"mianyang","database":"others","pinyin":"mianyang","location":"b104.679114,31.46745","region_id":"5","area_code":"0816","nc_region_id":"104","type":"2"},{"id":"22","city_code":"409","standard_code":"440900","script_index":"9","agency_code":"ÔÁK","parent_id":"5","name":"Ã¯Ãû","domain":"maoming","database":"others","pinyin":"maoming","location":"b110.925456,21.662999","region_id":"2","area_code":"0668","nc_region_id":"101","type":"2"},{"id":"302","city_code":"1411","standard_code":"231000","script_index":"11","agency_code":"ºÚC","parent_id":"15","name":"Äµµ¤½­","domain":"mudanjiang","database":"others","pinyin":"mudanjiang","location":"b129.633169,44.551653","region_id":"4","area_code":"0453","nc_region_id":"100","type":"2"},{"id":"266","city_code":"413","standard_code":"441400","script_index":"13","agency_code":"ÔÁM","parent_id":"5","name":"Ã·ÖÝ","domain":"meizhou","database":"others","pinyin":"meizhou","location":"b116.122469,24.288384","region_id":"2","area_code":"0753","nc_region_id":"101","type":"2"},{"id":"279","city_code":"515","standard_code":"511400","script_index":"15","agency_code":"´¨Z","parent_id":"6","name":"Ã¼É½","domain":"meishan","database":"others","pinyin":"meishan","location":"b103.848462,30.076015","region_id":"5","area_code":"028","nc_region_id":"104","type":"2"}],"N":[{"id":"65","city_code":"900","standard_code":"320100","script_index":"0","agency_code":"ËÕA","parent_id":"10","name":"ÄÏ¾©","domain":"nj","database":"nanjing","pinyin":"nanjing","location":"b118.796877,32.060255","region_id":"7","area_code":"025","nc_region_id":"102","type":"2"},{"id":"142","city_code":"1700","standard_code":"450100","script_index":"0","agency_code":"¹ðA","parent_id":"18","name":"ÄÏÄþ","domain":"nn","database":"nanning","pinyin":"nanning","location":"b108.365631,22.817642","region_id":"2","area_code":"0771","nc_region_id":"101","type":"2"},{"id":"214","city_code":"2700","standard_code":"360100","script_index":"0","agency_code":"¸ÓA","parent_id":"28","name":"ÄÏ²ý","domain":"nc","database":"nanchang","pinyin":"nanchang","location":"b115.858089,28.68316","region_id":"6","area_code":"0791","nc_region_id":"101","type":"2"},{"id":"27","city_code":"601","standard_code":"330200","script_index":"1","agency_code":"ÕãB","parent_id":"7","name":"Äþ²¨","domain":"nb","database":"ningbo","pinyin":"ningbo","location":"b121.54399,29.868336","region_id":"1","area_code":"0574","nc_region_id":"102","type":"2"},{"id":"260","city_code":"3004","standard_code":"542400","script_index":"4","agency_code":"²ØE","parent_id":"31","name":"ÄÇÇú","domain":"naqu","database":"others","pinyin":"naqu","location":"b92.058904,31.476496","region_id":"3","area_code":"0896","nc_region_id":"103","type":"2"},{"id":"51","city_code":"505","standard_code":"511300","script_index":"5","agency_code":"´¨R","parent_id":"6","name":"ÄÏ³ä","domain":"nanchong","database":"others","pinyin":"nanchong","location":"b106.110595,30.837888","region_id":"5","area_code":"0817","nc_region_id":"104","type":"2"},{"id":"70","city_code":"905","standard_code":"320600","script_index":"5","agency_code":"ËÕF","parent_id":"10","name":"ÄÏÍ¨","domain":"nantong","database":"others","pinyin":"nantong","location":"b120.894324,31.979997","region_id":"7","area_code":"0513","nc_region_id":"102","type":"2"},{"id":"81","city_code":"1006","standard_code":"350700","script_index":"6","agency_code":"ÃöH","parent_id":"11","name":"ÄÏÆ½","domain":"nanping","database":"others","pinyin":"nanping","location":"b118.17739,26.641671","region_id":"6","area_code":"0599","nc_region_id":"101","type":"2"},{"id":"111","city_code":"1207","standard_code":"411300","script_index":"7","agency_code":"Ô¥R","parent_id":"13","name":"ÄÏÑô","domain":"nanyang","database":"others","pinyin":"nanyang","location":"b112.528345,32.990615","region_id":"6","area_code":"0377","nc_region_id":"103","type":"2"},{"id":"83","city_code":"1008","standard_code":"350900","script_index":"8","agency_code":"ÃöJ","parent_id":"11","name":"ÄþµÂ","domain":"ningde","database":"others","pinyin":"ningde","location":"b119.526287,26.666291","region_id":"6","area_code":"0593","nc_region_id":"101","type":"2"},{"id":"277","city_code":"513","standard_code":"511000","script_index":"13","agency_code":"´¨K","parent_id":"6","name":"ÄÚ½­","domain":"neijiang","database":"others","pinyin":"neijiang","location":"b105.058352,29.580237","region_id":"5","area_code":"0832","nc_region_id":"104","type":"2"},{"id":"239","city_code":"2814","standard_code":"533300","script_index":"14","agency_code":"ÔÆQ","parent_id":"29","name":"Å­½­","domain":"nujiang","database":"others","pinyin":"nujiang","location":"b98.853097,25.852548","region_id":"5","area_code":"0886","nc_region_id":"104","type":"2"}],"P":[{"id":"77","city_code":"1002","standard_code":"350300","script_index":"2","agency_code":"ÃöB","parent_id":"11","name":"ÆÎÌï","domain":"putian","database":"others","pinyin":"putian","location":"b119.007715,25.454098","region_id":"6","area_code":"0594","nc_region_id":"101","type":"2"},{"id":"105","city_code":"1202","standard_code":"410400","script_index":"2","agency_code":"Ô¥D","parent_id":"13","name":"Æ½¶¥É½","domain":"pingdingshan","database":"others","pinyin":"pingdingshan","location":"b113.192814,33.76619","region_id":"6","area_code":"0375","nc_region_id":"103","type":"2"},{"id":"216","city_code":"2702","standard_code":"360300","script_index":"2","agency_code":"¸ÓJ","parent_id":"28","name":"Æ¼Ïç","domain":"pingxiang","database":"others","pinyin":"pingxiang","location":"b113.854676,27.622865","region_id":"6","area_code":"0799","nc_region_id":"101","type":"2"},{"id":"172","city_code":"2206","standard_code":"620800","script_index":"6","agency_code":"¸ÊL","parent_id":"23","name":"Æ½Á¹","domain":"pingliang","database":"others","pinyin":"pingliang","location":"b106.665106,35.542686","region_id":"3","area_code":"0933","nc_region_id":"103","type":"2"},{"id":"63","city_code":"808","standard_code":"211100","script_index":"8","agency_code":"ÁÉL","parent_id":"9","name":"ÅÌ½õ","domain":"panjin","database":"others","pinyin":"panjin","location":"b122.070714,41.119997","region_id":"4","area_code":"0427","nc_region_id":"100","type":"2"},{"id":"274","city_code":"510","standard_code":"510400","script_index":"10","agency_code":"´¨D","parent_id":"6","name":"ÅÊÖ¦»¨","domain":"panzhihua","database":"others","pinyin":"panzhihua","location":"b101.718637,26.582347","region_id":"5","area_code":"0812","nc_region_id":"104","type":"2"},{"id":"231","city_code":"2811","standard_code":"530800","script_index":"11","agency_code":"ÔÆJ","parent_id":"29","name":"ÆÕ¶ý","domain":"puer","database":"others","pinyin":"puer","location":"b101.057193,23.078559","region_id":"5","area_code":"0879","nc_region_id":"104","type":"2"},{"id":"294","city_code":"1211","standard_code":"410900","script_index":"11","agency_code":"Ô¥J","parent_id":"13","name":"å§Ñô","domain":"puyang","database":"others","pinyin":"puyang","location":"b115.029331,35.762141","region_id":"6","area_code":"0393","nc_region_id":"103","type":"2"},{"id":"381","city_code":"521","standard_code":"510124","script_index":"21","agency_code":"´¨A,´¨G","parent_id":"6","name":"Û¯ÏØ","domain":"pixian","database":"others","pinyin":"pixian","location":"b103.910784,30.796719","region_id":"5","area_code":"028","nc_region_id":"104","type":"2"}],"Q":[{"id":"94","city_code":"1401","standard_code":"230200","script_index":"1","agency_code":"ºÚB","parent_id":"15","name":"ÆëÆë¹þ¶û","domain":"qiqihaer","database":"others","pinyin":"qiqihaer","location":"b123.918186,47.354348","region_id":"4","area_code":"0452","nc_region_id":"100","type":"2"},{"id":"114","city_code":"1501","standard_code":"370200","script_index":"1","agency_code":"Â³B","parent_id":"16","name":"Çàµº","domain":"qd","database":"qingdao","pinyin":"qingdao","location":"b120.382504,36.06722","region_id":"4","area_code":"0532","nc_region_id":"103","type":"2"},{"id":"226","city_code":"2801","standard_code":"530300","script_index":"1","agency_code":"ÔÆD","parent_id":"29","name":"Çú¾¸","domain":"qujing","database":"others","pinyin":"qujing","location":"b103.796167,25.49001","region_id":"5","area_code":"0874","nc_region_id":"104","type":"2"},{"id":"377","city_code":"1803","standard_code":"469002","script_index":"3","agency_code":"ÇíC","parent_id":"19","name":"Çíº£","domain":"qh","database":"others","pinyin":"qionghai","location":"b110.472628,19.263979","region_id":"2","area_code":"0898","nc_region_id":"101","type":"2"},{"id":"79","city_code":"1004","standard_code":"350500","script_index":"4","agency_code":"ÃöC","parent_id":"11","name":"ÈªÖÝ","domain":"quanzhou","database":"others","pinyin":"quanzhou","location":"b118.586812,24.907574","region_id":"6","area_code":"0595","nc_region_id":"101","type":"2"},{"id":"136","city_code":"1704","standard_code":"450700","script_index":"4","agency_code":"¹ðN","parent_id":"18","name":"ÇÕÖÝ","domain":"qinzhou","database":"others","pinyin":"qinzhou","location":"b108.654543,21.980968","region_id":"2","area_code":"0777","nc_region_id":"101","type":"2"},{"id":"42","city_code":"706","standard_code":"522300","script_index":"6","agency_code":"¹óE","parent_id":"8","name":"Ç­Î÷ÄÏ","domain":"qianxinan","database":"others","pinyin":"qianxinan","location":"b104.906397,25.087825","region_id":"5","area_code":"0859","nc_region_id":"104","type":"2"},{"id":"33","city_code":"607","standard_code":"330800","script_index":"7","agency_code":"ÕãH","parent_id":"7","name":"áéÖÝ","domain":"quzhou","database":"others","pinyin":"quzhou","location":"b118.874375,28.93581","region_id":"1","area_code":"0570","nc_region_id":"102","type":"2"},{"id":"43","city_code":"707","standard_code":"522600","script_index":"7","agency_code":"¹óH","parent_id":"8","name":"Ç­¶«ÄÏ","domain":"qiandongnan","database":"others","pinyin":"qiandongnan","location":"b107.982828,26.58355","region_id":"5","area_code":"0855","nc_region_id":"104","type":"2"},{"id":"44","city_code":"708","standard_code":"522700","script_index":"8","agency_code":"¹óJ","parent_id":"8","name":"Ç­ÄÏ","domain":"qiannan","database":"others","pinyin":"qiannan","location":"b107.52214,26.254092","region_id":"5","area_code":"0854","nc_region_id":"104","type":"2"},{"id":"174","city_code":"2208","standard_code":"621000","script_index":"8","agency_code":"¸ÊM","parent_id":"23","name":"ÇìÑô","domain":"qingyang","database":"others","pinyin":"qingyang","location":"b107.632469,35.738668","region_id":"3","area_code":"0934","nc_region_id":"103","type":"2"},{"id":"3","city_code":"1109","standard_code":"130300","script_index":"9","agency_code":"¼½C","parent_id":"12","name":"ÇØ»Êµº","domain":"qinhuangdao","database":"others","pinyin":"qinhuangdao","location":"b119.600492,39.935377","region_id":"3","area_code":"0335","nc_region_id":"100","type":"2"},{"id":"203","city_code":"2509","standard_code":"429005","script_index":"9","agency_code":"¶õN","parent_id":"26","name":"Ç±½­","domain":"qianjiang","database":"others","pinyin":"qianjiang","location":"b112.900079,30.40211","region_id":"6","area_code":"0728","nc_region_id":"103","type":"2"},{"id":"301","city_code":"1410","standard_code":"230900","script_index":"10","agency_code":"ºÚK","parent_id":"15","name":"ÆßÌ¨ºÓ","domain":"qitaihe","database":"others","pinyin":"qitaihe","location":"b131.004915,45.771975","region_id":"4","area_code":"0464","nc_region_id":"100","type":"2"},{"id":"270","city_code":"417","standard_code":"441800","script_index":"17","agency_code":"ÔÁR","parent_id":"5","name":"ÇåÔ¶","domain":"qingyuan","database":"others","pinyin":"qingyuan","location":"b113.056042,23.681801","region_id":"2","area_code":"0763","nc_region_id":"101","type":"2"}],"R":[{"id":"259","city_code":"3003","standard_code":"540200","script_index":"3","agency_code":"²ØD","parent_id":"31","name":"ÈÕ¿¦Ôò","domain":"rikaze","database":"others","pinyin":"rikaze","location":"b88.880583,29.26687","region_id":"3","area_code":"0892","nc_region_id":"103","type":"2"},{"id":"306","city_code":"1512","standard_code":"371100","script_index":"12","agency_code":"Â³L","parent_id":"16","name":"ÈÕÕÕ","domain":"rizhao","database":"others","pinyin":"rizhao","location":"b119.526888,35.416377","region_id":"4","area_code":"0633","nc_region_id":"103","type":"2"}],"S":[{"id":"1","city_code":"1100","standard_code":"130100","script_index":"0","agency_code":"¼½A","parent_id":"12","name":"Ê¯¼Ò×¯","domain":"sjz","database":"shijiazhuang","pinyin":"shijiazhuang","location":"b114.51486,38.042307","region_id":"3","area_code":"0311","nc_region_id":"100","type":"2"},{"id":"13","city_code":"100","standard_code":"310000","script_index":"0","agency_code":"»¦A~R","parent_id":"2","name":"ÉÏº£","domain":"sh","database":"shanghai","pinyin":"shanghai","location":"b121.473704,31.230393","region_id":"1","area_code":"021","nc_region_id":"102","type":"2"},{"id":"55","city_code":"800","standard_code":"210100","script_index":"0","agency_code":"ÁÉA","parent_id":"9","name":"ÉòÑô","domain":"sy","database":"shenyang","pinyin":"shenyang","location":"b123.43147,41.80572","region_id":"4","area_code":"024","nc_region_id":"100","type":"2"},{"id":"17","city_code":"401","standard_code":"440300","script_index":"1","agency_code":"ÔÁB","parent_id":"5","name":"ÉîÛÚ","domain":"sz","database":"shenzhen","pinyin":"shenzhen","location":"b114.057868,22.543099","region_id":"2","area_code":"0755","nc_region_id":"101","type":"2"},{"id":"67","city_code":"901","standard_code":"320500","script_index":"1","agency_code":"ËÕE","parent_id":"10","name":"ËÕÖÝ","domain":"su","database":"suzhou","pinyin":"suzhou","location":"b120.585316,31.298886","region_id":"7","area_code":"0512","nc_region_id":"102","type":"2"},{"id":"144","city_code":"1801","standard_code":"460200","script_index":"1","agency_code":"ÇíB","parent_id":"19","name":"ÈýÑÇ","domain":"sanya","database":"others","pinyin":"sanya","location":"b109.511909,18.252847","region_id":"2","area_code":"0898","nc_region_id":"101","type":"2"},{"id":"339","city_code":"2101","standard_code":"640200","script_index":"1","agency_code":"ÄþB","parent_id":"22","name":"Ê¯×ìÉ½","domain":"shizuishan","database":"others","pinyin":"shizuishan","location":"b106.368062,39.019057","region_id":"3","area_code":"0952","nc_region_id":"103","type":"2"},{"id":"86","city_code":"1302","standard_code":"220300","script_index":"2","agency_code":"¼ªC","parent_id":"14","name":"ËÄÆ½","domain":"siping","database":"others","pinyin":"siping","location":"b124.350352,43.166937","region_id":"4","area_code":"0434","nc_region_id":"100","type":"2"},{"id":"258","city_code":"3002","standard_code":"542200","script_index":"2","agency_code":"²ØC","parent_id":"31","name":"É½ÄÏ","domain":"shannan","database":"others","pinyin":"shannan","location":"b91.766236,29.236071","region_id":"3","area_code":"0893","nc_region_id":"103","type":"2"},{"id":"78","city_code":"1003","standard_code":"350400","script_index":"3","agency_code":"ÃöG","parent_id":"11","name":"ÈýÃ÷","domain":"sanming","database":"others","pinyin":"sanming","location":"b117.638709,26.263432","region_id":"6","area_code":"0598","nc_region_id":"101","type":"2"},{"id":"197","city_code":"2503","standard_code":"420300","script_index":"3","agency_code":"¶õC","parent_id":"26","name":"Ê®Ñß","domain":"shiyan","database":"others","pinyin":"shiyan","location":"b110.788811,32.65059","region_id":"6","area_code":"0719","nc_region_id":"103","type":"2"},{"id":"19","city_code":"404","standard_code":"440500","script_index":"4","agency_code":"ÔÁD","parent_id":"5","name":"ÉÇÍ·","domain":"shantou","database":"others","pinyin":"shantou","location":"b116.681943,23.353362","region_id":"2","area_code":"0754","nc_region_id":"101","type":"2"},{"id":"97","city_code":"1404","standard_code":"230500","script_index":"4","agency_code":"ºÚJ","parent_id":"15","name":"Ë«Ñ¼É½","domain":"shuangyashan","database":"others","pinyin":"shuangyashan","location":"b131.159553,46.646923","region_id":"4","area_code":"0469","nc_region_id":"100","type":"2"},{"id":"208","city_code":"2604","standard_code":"430500","script_index":"4","agency_code":"ÏæE","parent_id":"27","name":"ÉÛÑô","domain":"shaoyang","database":"others","pinyin":"shaoyang","location":"b111.468236,27.239973","region_id":"6","area_code":"0739","nc_region_id":"103","type":"2"},{"id":"31","city_code":"605","standard_code":"330600","script_index":"5","agency_code":"ÕãD","parent_id":"7","name":"ÉÜÐË","domain":"shaoxing","database":"others","pinyin":"shaoxing","location":"b120.586109,29.995762","region_id":"1","area_code":"0575","nc_region_id":"102","type":"2"},{"id":"160","city_code":"2005","standard_code":"140600","script_index":"5","agency_code":"½úF","parent_id":"21","name":"Ë·ÖÝ","domain":"shuozhou","database":"others","pinyin":"shuozhou","location":"b112.432714,39.331149","region_id":"3","area_code":"0349","nc_region_id":"100","type":"2"},{"id":"90","city_code":"1306","standard_code":"220700","script_index":"6","agency_code":"¼ªJ","parent_id":"14","name":"ËÉÔ­","domain":"songyuan","database":"others","pinyin":"songyuan","location":"b124.825118,45.141789","region_id":"4","area_code":"0438","nc_region_id":"100","type":"2"},{"id":"130","city_code":"1607","standard_code":"341300","script_index":"7","agency_code":"ÍîL","parent_id":"17","name":"ËÞÖÝ","domain":"ahsuzhou","database":"others","pinyin":"suzhouah","location":"b116.985301,33.639394","region_id":"7","area_code":"0557","nc_region_id":"103","type":"2"},{"id":"183","city_code":"2307","standard_code":"610800","script_index":"7","agency_code":"ÉÂK","parent_id":"24","name":"ÓÜÁÖ","domain":"sxyulin","database":"others","pinyin":"sxyulin","location":"b109.735209,38.285526","region_id":"3","area_code":"0912","nc_region_id":"103","type":"2"},{"id":"224","city_code":"2707","standard_code":"361100","script_index":"7","agency_code":"¸ÓE","parent_id":"28","name":"ÉÏÈÄ","domain":"shangrao","database":"others","pinyin":"shangrao","location":"b117.943433,28.454863","region_id":"6","area_code":"0793","nc_region_id":"101","type":"2"},{"id":"255","city_code":"2908","standard_code":"659001","script_index":"8","agency_code":"ÐÂC","parent_id":"30","name":"Ê¯ºÓ×Ó","domain":"shihezi","database":"others","pinyin":"shihezi","location":"b86.080497,44.306119","region_id":"3","area_code":"0993","nc_region_id":"103","type":"2"},{"id":"102","city_code":"1409","standard_code":"231200","script_index":"9","agency_code":"ºÚM","parent_id":"15","name":"Ëç»¯","domain":"suihua","database":"others","pinyin":"suihua","location":"b126.980006,46.636631","region_id":"4","area_code":"0455","nc_region_id":"100","type":"2"},{"id":"185","city_code":"2309","standard_code":"611000","script_index":"9","agency_code":"ÉÂH","parent_id":"24","name":"ÉÌÂå","domain":"shangluo","database":"others","pinyin":"shangluo","location":"b109.940477,33.870422","region_id":"3","area_code":"0914","nc_region_id":"103","type":"2"},{"id":"263","city_code":"410","standard_code":"440200","script_index":"10","agency_code":"ÔÁF","parent_id":"5","name":"ÉØ¹Ø","domain":"shaoguan","database":"others","pinyin":"shaoguan","location":"b113.597522,24.810403","region_id":"2","area_code":"0751","nc_region_id":"101","type":"2"},{"id":"276","city_code":"512","standard_code":"510900","script_index":"12","agency_code":"´¨J","parent_id":"6","name":"ËìÄþ","domain":"suining","database":"others","pinyin":"suining","location":"b105.592898,30.532847","region_id":"5","area_code":"0825","nc_region_id":"104","type":"2"},{"id":"292","city_code":"912","standard_code":"321300","script_index":"12","agency_code":"ËÕN","parent_id":"10","name":"ËÞÇ¨","domain":"suqian","database":"others","pinyin":"suqian","location":"b118.275497,33.961994","region_id":"7","area_code":"0527","nc_region_id":"102","type":"2"},{"id":"296","city_code":"1213","standard_code":"411200","script_index":"13","agency_code":"Ô¥M","parent_id":"13","name":"ÈýÃÅÏ¿","domain":"sanmenxia","database":"others","pinyin":"sanmenxia","location":"b111.20023,34.772424","region_id":"6","area_code":"0398","nc_region_id":"103","type":"2"},{"id":"330","city_code":"2513","standard_code":"421300","script_index":"13","agency_code":"¶õS","parent_id":"26","name":"ËæÖÝ","domain":"suizhou","database":"others","pinyin":"suizhou","location":"b113.382842,31.689958","region_id":"6","area_code":"0722","nc_region_id":"103","type":"2"},{"id":"267","city_code":"414","standard_code":"441500","script_index":"14","agency_code":"ÔÁN","parent_id":"5","name":"ÉÇÎ²","domain":"shanwei","database":"others","pinyin":"shanwei","location":"b115.375279,22.786211","region_id":"2","area_code":"0660","nc_region_id":"101","type":"2"},{"id":"297","city_code":"1214","standard_code":"411400","script_index":"14","agency_code":"Ô¥N","parent_id":"13","name":"ÉÌÇð","domain":"shangqiu","database":"others","pinyin":"shangqiu","location":"b115.656394,34.414183","region_id":"6","area_code":"0370","nc_region_id":"103","type":"2"},{"id":"333","city_code":"2516","standard_code":"429021","script_index":"16","agency_code":"¶õP","parent_id":"26","name":"ÉñÅ©¼Ü","domain":"shennongjia","database":"others","pinyin":"shennongjia","location":"b110.675733,31.74497","region_id":"6","area_code":"0719","nc_region_id":"103","type":"2"},{"id":"382","city_code":"522","standard_code":"510122","script_index":"22","agency_code":"´¨A","parent_id":"6","name":"Ë«Á÷","domain":"shuangliu","database":"others","pinyin":"shuangliu","location":"b103.91528,30.582922","region_id":"5","area_code":"028","nc_region_id":"104","type":"2"}],"T":[{"id":"14","city_code":"200","standard_code":"120000","script_index":"0","agency_code":"½òA~Q","parent_id":"3","name":"Ìì½ò","domain":"tj","database":"tianjin","pinyin":"tianjin","location":"b117.200983,39.084158","region_id":"8","area_code":"022","nc_region_id":"100","type":"2"},{"id":"155","city_code":"2000","standard_code":"140100","script_index":"0","agency_code":"½úA","parent_id":"21","name":"Ì«Ô­","domain":"ty","database":"taiyuan","pinyin":"taiyuan","location":"b112.550619,37.870662","region_id":"3","area_code":"0351","nc_region_id":"100","type":"2"},{"id":"2","city_code":"1101","standard_code":"130200","script_index":"1","agency_code":"¼½B","parent_id":"12","name":"ÌÆÉ½","domain":"tangshan","database":"others","pinyin":"tangshan","location":"b118.180407,39.630476","region_id":"3","area_code":"0315","nc_region_id":"100","type":"2"},{"id":"177","city_code":"2301","standard_code":"610200","script_index":"1","agency_code":"ÉÂB","parent_id":"24","name":"Í­´¨","domain":"tongchuan","database":"others","pinyin":"tongchuan","location":"b108.945142,34.896747","region_id":"3","area_code":"0919","nc_region_id":"103","type":"2"},{"id":"243","city_code":"2902","standard_code":"650400","script_index":"2","agency_code":"ÐÂK","parent_id":"30","name":"ÍÂÂ³·¬","domain":"tulufan","database":"others","pinyin":"tulufan","location":"b89.189655,42.951384","region_id":"3","area_code":"0995","nc_region_id":"103","type":"2"},{"id":"169","city_code":"2203","standard_code":"620500","script_index":"3","agency_code":"¸ÊE","parent_id":"23","name":"ÌìË®","domain":"tianshui","database":"others","pinyin":"tianshui","location":"b105.724947,34.580862","region_id":"3","area_code":"0938","nc_region_id":"103","type":"2"},{"id":"40","city_code":"704","standard_code":"520600","script_index":"4","agency_code":"¹óD","parent_id":"8","name":"Í­ÈÊ","domain":"tongren","database":"others","pinyin":"tongren","location":"b109.16855802826,27.674902690624","region_id":"5","area_code":"0856","nc_region_id":"104","type":"2"},{"id":"88","city_code":"1304","standard_code":"220500","script_index":"4","agency_code":"¼ªE","parent_id":"14","name":"Í¨»¯","domain":"tonghua","database":"others","pinyin":"tonghua","location":"b125.939697,41.728401","region_id":"4","area_code":"0435","nc_region_id":"100","type":"2"},{"id":"149","city_code":"1904","standard_code":"150500","script_index":"4","agency_code":"ÃÉG","parent_id":"20","name":"Í¨ÁÉ","domain":"tongliao","database":"others","pinyin":"tongliao","location":"b122.265737,43.61944","region_id":"8","area_code":"0475","nc_region_id":"100","type":"2"},{"id":"305","city_code":"1511","standard_code":"370900","script_index":"11","agency_code":"Â³J","parent_id":"16","name":"Ì©°²","domain":"taian","database":"others","pinyin":"taian","location":"b117.087614,36.200252","region_id":"4","area_code":"0538","nc_region_id":"103","type":"2"},{"id":"288","city_code":"812","standard_code":"211200","script_index":"12","agency_code":"ÁÉM","parent_id":"9","name":"ÌúÁë","domain":"tieling","database":"others","pinyin":"tieling","location":"b123.841819,42.286624","region_id":"4","area_code":"024","nc_region_id":"100","type":"2"},{"id":"312","city_code":"1612","standard_code":"340700","script_index":"12","agency_code":"ÍîG","parent_id":"17","name":"Í­Áê","domain":"tongling","database":"others","pinyin":"tongling","location":"b117.810841,30.94453","region_id":"7","area_code":"0562","nc_region_id":"103","type":"2"},{"id":"253","city_code":"2913","standard_code":"654200","script_index":"13","agency_code":"ÐÂG","parent_id":"30","name":"Ëþ³Ç","domain":"tacheng","database":"others","pinyin":"tacheng","location":"b82.978928,46.748523","region_id":"3","area_code":"0901","nc_region_id":"103","type":"2"},{"id":"332","city_code":"2515","standard_code":"429006","script_index":"15","agency_code":"¶õR","parent_id":"26","name":"ÌìÃÅ","domain":"tianmen","database":"others","pinyin":"tianmen","location":"b113.16653,30.663372","region_id":"6","area_code":"0728","nc_region_id":"103","type":"2"},{"id":"375","city_code":"2917","standard_code":"659003","script_index":"17","agency_code":"ÐÂQ","parent_id":"30","name":"Í¼Ä¾Êæ¿Ë","domain":"tumushuke","database":"others","pinyin":"tumushuke","location":"b79.068771,39.8649","region_id":"3","area_code":"0998","nc_region_id":"103","type":"2"}],"W":[{"id":"194","city_code":"2500","standard_code":"420100","script_index":"0","agency_code":"¶õA","parent_id":"26","name":"Îäºº","domain":"wh","database":"wuhan","pinyin":"wuhan","location":"b114.305357,30.593087","region_id":"6","area_code":"027","nc_region_id":"103","type":"2"},{"id":"241","city_code":"2900","standard_code":"650100","script_index":"0","agency_code":"ÐÂA","parent_id":"30","name":"ÎÚÂ³Ä¾Æë","domain":"xj","database":"wulumuqi","pinyin":"wulumuqi","location":"b87.617298,43.825666","region_id":"3","area_code":"0991","nc_region_id":"103","type":"2"},{"id":"124","city_code":"1601","standard_code":"340200","script_index":"1","agency_code":"ÍîB","parent_id":"17","name":"Îßºþ","domain":"wuhu","database":"others","pinyin":"wuhu","location":"b118.385156,31.33879","region_id":"7","area_code":"0553","nc_region_id":"103","type":"2"},{"id":"28","city_code":"602","standard_code":"330300","script_index":"2","agency_code":"ÕãC","parent_id":"7","name":"ÎÂÖÝ","domain":"wenzhou","database":"others","pinyin":"wenzhou","location":"b120.699367,27.994267","region_id":"1","area_code":"0577","nc_region_id":"102","type":"2"},{"id":"66","city_code":"902","standard_code":"320200","script_index":"2","agency_code":"ËÕB","parent_id":"10","name":"ÎÞÎý","domain":"wx","database":"wuxi","pinyin":"wuxi","location":"b120.303027,31.566145","region_id":"7","area_code":"0510","nc_region_id":"102","type":"2"},{"id":"120","city_code":"1502","standard_code":"371000","script_index":"2","agency_code":"Â³K","parent_id":"16","name":"Íþº£","domain":"wei","database":"weihai","pinyin":"weihai","location":"b122.12042,37.513068","region_id":"4","area_code":"0631","nc_region_id":"103","type":"2"},{"id":"147","city_code":"1902","standard_code":"150300","script_index":"2","agency_code":"ÃÉC","parent_id":"20","name":"ÎÚº£","domain":"wuhai","database":"others","pinyin":"wuhai","location":"b106.822809,39.690462","region_id":"8","area_code":"0473","nc_region_id":"100","type":"2"},{"id":"340","city_code":"2102","standard_code":"640300","script_index":"2","agency_code":"ÄþC","parent_id":"22","name":"ÎâÖÒ","domain":"wuzhong","database":"others","pinyin":"wuzhong","location":"b106.193810084,37.9969222364","region_id":"3","area_code":"0953","nc_region_id":"103","type":"2"},{"id":"135","city_code":"1703","standard_code":"450400","script_index":"3","agency_code":"¹ðD","parent_id":"18","name":"ÎàÖÝ","domain":"wuzhou","database":"others","pinyin":"wuzhou","location":"b111.27917,23.47691","region_id":"2","area_code":"0774","nc_region_id":"101","type":"2"},{"id":"170","city_code":"2204","standard_code":"620600","script_index":"4","agency_code":"¸ÊH","parent_id":"23","name":"ÎäÍþ","domain":"wuwei","database":"others","pinyin":"wuwei","location":"b102.638009,37.928336","region_id":"3","area_code":"0935","nc_region_id":"103","type":"2"},{"id":"180","city_code":"2304","standard_code":"610500","script_index":"4","agency_code":"ÉÂE","parent_id":"24","name":"Î¼ÄÏ","domain":"weinan","database":"others","pinyin":"weinan","location":"b109.509786,34.499995","region_id":"3","area_code":"0913","nc_region_id":"103","type":"2"},{"id":"119","city_code":"1507","standard_code":"370700","script_index":"7","agency_code":"Â³G","parent_id":"16","name":"Î«·»","domain":"weifang","database":"others","pinyin":"weifang","location":"b119.16193,36.706691","region_id":"4","area_code":"0536","nc_region_id":"103","type":"2"},{"id":"153","city_code":"1908","standard_code":"150900","script_index":"8","agency_code":"ÃÉJ","parent_id":"20","name":"ÎÚÀ¼²ì²¼","domain":"wulanchabu","database":"others","pinyin":"wulanchabu","location":"b113.104507,41.038933","region_id":"8","area_code":"0474","nc_region_id":"100","type":"2"},{"id":"233","city_code":"2813","standard_code":"532600","script_index":"13","agency_code":"ÔÆH","parent_id":"29","name":"ÎÄÉ½","domain":"wenshan","database":"others","pinyin":"wenshan","location":"b104.250725,23.362997","region_id":"5","area_code":"0876","nc_region_id":"104","type":"2"},{"id":"353","city_code":"1802","standard_code":"469001","script_index":"2","agency_code":"ÇíD","parent_id":"19","name":"ÎåÖ¸É½","domain":"wuzhishan","database":"others","pinyin":"wuzhishan","location":"b109.516925,18.775147","region_id":"2","area_code":"0898","nc_region_id":"101","type":"2"},{"id":"376","city_code":"2918","standard_code":"659004","script_index":"18","agency_code":"ÐÂB","parent_id":"30","name":"Îå¼ÒÇþ","domain":"wujiaqu","database":"others","pinyin":"wujiaqu","location":"b87.54324,44.166757","region_id":"3","area_code":"0994","nc_region_id":"103","type":"2"}],"X":[{"id":"176","city_code":"2300","standard_code":"610100","script_index":"0","agency_code":"ÉÂA","parent_id":"24","name":"Î÷°²","domain":"xa","database":"xian","pinyin":"xian","location":"b108.944269,34.264987","region_id":"3","area_code":"029","nc_region_id":"103","type":"2"},{"id":"186","city_code":"2400","standard_code":"630100","script_index":"0","agency_code":"ÇàA","parent_id":"25","name":"Î÷Äþ","domain":"xn","database":"xining","pinyin":"xining","location":"b101.778208,36.617085","region_id":"3","area_code":"0971","nc_region_id":"103","type":"2"},{"id":"344","city_code":"3200","standard_code":"810000","script_index":"0","agency_code":"","parent_id":"33","name":"Ïã¸Û","domain":"xianggang","database":"others","pinyin":"xianggang","location":"b114.2033843,22.2478599","region_id":"0","area_code":"00852","nc_region_id":"0","type":"2"},{"id":"76","city_code":"1001","standard_code":"350200","script_index":"1","agency_code":"ÃöD","parent_id":"11","name":"ÏÃÃÅ","domain":"xm","database":"xiamen","pinyin":"xiamen","location":"b118.08942,24.479836","region_id":"6","area_code":"0592","nc_region_id":"101","type":"2"},{"id":"196","city_code":"2502","standard_code":"420600","script_index":"2","agency_code":"¶õF","parent_id":"26","name":"ÏåÑô","domain":"xiangyang","database":"others","pinyin":"xiangyang","location":"b112.25009284837,32.229168591538","region_id":"6","area_code":"0710","nc_region_id":"103","type":"2"},{"id":"206","city_code":"2602","standard_code":"430300","script_index":"2","agency_code":"ÏæC","parent_id":"27","name":"ÏæÌ¶","domain":"xiangtan","database":"others","pinyin":"xiangtan","location":"b112.944049,27.829738","region_id":"6","area_code":"0731","nc_region_id":"103","type":"2"},{"id":"5","city_code":"1103","standard_code":"130500","script_index":"3","agency_code":"¼½E","parent_id":"12","name":"ÐÏÌ¨","domain":"xingtai","database":"others","pinyin":"xingtai","location":"b114.504874,37.070589","region_id":"3","area_code":"0319","nc_region_id":"100","type":"2"},{"id":"68","city_code":"903","standard_code":"320300","script_index":"3","agency_code":"ËÕC","parent_id":"10","name":"ÐìÖÝ","domain":"xuzhou","database":"others","pinyin":"xuzhou","location":"b117.284067,34.20475","region_id":"7","area_code":"0516","nc_region_id":"102","type":"2"},{"id":"179","city_code":"2303","standard_code":"610400","script_index":"3","agency_code":"ÉÂD","parent_id":"24","name":"ÏÌÑô","domain":"xianyang","database":"others","pinyin":"xianyang","location":"b108.709003,34.329563","region_id":"3","area_code":"029","nc_region_id":"103","type":"2"},{"id":"218","city_code":"2704","standard_code":"360500","script_index":"4","agency_code":"¸ÓK","parent_id":"28","name":"ÐÂÓà","domain":"xinyu","database":"others","pinyin":"xinyu","location":"b114.91741,27.817819","region_id":"6","area_code":"0790","nc_region_id":"101","type":"2"},{"id":"108","city_code":"1205","standard_code":"410700","script_index":"5","agency_code":"Ô¥G","parent_id":"13","name":"ÐÂÏç","domain":"xinxiang","database":"others","pinyin":"xinxiang","location":"b113.9268,35.303004","region_id":"6","area_code":"0373","nc_region_id":"103","type":"2"},{"id":"235","city_code":"2806","standard_code":"532800","script_index":"6","agency_code":"ÔÆK","parent_id":"29","name":"Î÷Ë«°æÄÉ","domain":"xishuangbanna","database":"others","pinyin":"xishuangbanna","location":"b100.797353,22.008193","region_id":"5","area_code":"0691","nc_region_id":"104","type":"2"},{"id":"163","city_code":"2008","standard_code":"140900","script_index":"8","agency_code":"½úH","parent_id":"21","name":"ÐÃÖÝ","domain":"xinzhou","database":"others","pinyin":"xinzhou","location":"b112.734269,38.416364","region_id":"3","area_code":"0350","nc_region_id":"100","type":"2"},{"id":"202","city_code":"2508","standard_code":"429004","script_index":"8","agency_code":"¶õM","parent_id":"26","name":"ÏÉÌÒ","domain":"xiantao","database":"others","pinyin":"xiantao","location":"b113.454593,30.362641","region_id":"6","area_code":"0728","nc_region_id":"103","type":"2"},{"id":"154","city_code":"1909","standard_code":"152200","script_index":"9","agency_code":"ÃÉF","parent_id":"20","name":"ÐË°²","domain":"xingan","database":"others","pinyin":"xingan","location":"b122.067042,46.077561","region_id":"8","area_code":"0436","nc_region_id":"100","type":"2"},{"id":"321","city_code":"1910","standard_code":"152500","script_index":"10","agency_code":"ÃÉH","parent_id":"20","name":"ÎýÁÖ¹ùÀÕ","domain":"xilinguole","database":"others","pinyin":"xilinguole","location":"b116.048222,43.933454","region_id":"8","area_code":"0479","nc_region_id":"100","type":"2"},{"id":"327","city_code":"2510","standard_code":"420900","script_index":"10","agency_code":"¶õK","parent_id":"26","name":"Ð¢¸Ð","domain":"xiaogan","database":"others","pinyin":"xiaogan","location":"b113.916903,30.924568","region_id":"6","area_code":"0712","nc_region_id":"103","type":"2"},{"id":"295","city_code":"1212","standard_code":"411000","script_index":"12","agency_code":"Ô¥K","parent_id":"13","name":"Ðí²ý","domain":"xuchang","database":"others","pinyin":"xuchang","location":"b113.852461,34.035825","region_id":"6","area_code":"0374","nc_region_id":"103","type":"2"},{"id":"329","city_code":"2512","standard_code":"421200","script_index":"12","agency_code":"¶õL","parent_id":"26","name":"ÏÌÄþ","domain":"xianning","database":"others","pinyin":"xianning","location":"b114.322492,29.841443","region_id":"6","area_code":"0715","nc_region_id":"103","type":"2"},{"id":"337","city_code":"2613","standard_code":"433100","script_index":"13","agency_code":"ÏæU","parent_id":"27","name":"ÏæÎ÷","domain":"xiangxi","database":"others","pinyin":"xiangxi","location":"b109.738842,28.311834","region_id":"6","area_code":"0743","nc_region_id":"103","type":"2"},{"id":"298","city_code":"1215","standard_code":"411500","script_index":"15","agency_code":"Ô¥S","parent_id":"13","name":"ÐÅÑô","domain":"xinyang","database":"others","pinyin":"xinyang","location":"b114.068871,32.123233","region_id":"6","area_code":"0376","nc_region_id":"103","type":"2"},{"id":"316","city_code":"1616","standard_code":"341800","script_index":"16","agency_code":"ÍîP","parent_id":"17","name":"Ðû³Ç","domain":"xuancheng","database":"others","pinyin":"xuancheng","location":"b118.758816,30.940718","region_id":"7","area_code":"0563","nc_region_id":"103","type":"2"}],"Y":[{"id":"165","city_code":"2100","standard_code":"640100","script_index":"0","agency_code":"ÄþA","parent_id":"22","name":"Òø´¨","domain":"yc","database":"yinchuan","pinyin":"yinchuan","location":"b106.226499448,38.4867237337","region_id":"3","area_code":"0951","nc_region_id":"103","type":"2"},{"id":"157","city_code":"2002","standard_code":"140300","script_index":"2","agency_code":"½úC","parent_id":"21","name":"ÑôÈª","domain":"yangquan","database":"others","pinyin":"yangquan","location":"b113.580415,37.856658","region_id":"3","area_code":"0353","nc_region_id":"100","type":"2"},{"id":"227","city_code":"2802","standard_code":"530400","script_index":"2","agency_code":"ÔÆF","parent_id":"29","name":"ÓñÏª","domain":"yuxi","database":"others","pinyin":"yuxi","location":"b102.546543,24.352036","region_id":"5","area_code":"0877","nc_region_id":"104","type":"2"},{"id":"181","city_code":"2305","standard_code":"610600","script_index":"5","agency_code":"ÉÂJ","parent_id":"24","name":"ÑÓ°²","domain":"yanan","database":"others","pinyin":"yanan","location":"b109.489635,36.585424","region_id":"3","area_code":"0911","nc_region_id":"103","type":"2"},{"id":"199","city_code":"2505","standard_code":"420500","script_index":"5","agency_code":"¶õE","parent_id":"26","name":"ÒË²ý","domain":"yichang","database":"others","pinyin":"yichang","location":"b111.286471,30.691967","region_id":"6","area_code":"0717","nc_region_id":"103","type":"2"},{"id":"209","city_code":"2605","standard_code":"430600","script_index":"5","agency_code":"ÏæF","parent_id":"27","name":"ÔÀÑô","domain":"yueyang","database":"others","pinyin":"yueyang","location":"b113.128959,29.357104","region_id":"6","area_code":"0730","nc_region_id":"103","type":"2"},{"id":"219","city_code":"2705","standard_code":"360600","script_index":"5","agency_code":"¸ÓL","parent_id":"28","name":"Ó¥Ì¶","domain":"yingtan","database":"others","pinyin":"yingtan","location":"b117.069202,28.260189","region_id":"6","area_code":"0701","nc_region_id":"101","type":"2"},{"id":"61","city_code":"806","standard_code":"210800","script_index":"6","agency_code":"ÁÉH","parent_id":"9","name":"Óª¿Ú","domain":"yingkou","database":"others","pinyin":"yingkou","location":"b122.234996,40.667061","region_id":"4","area_code":"0417","nc_region_id":"100","type":"2"},{"id":"118","city_code":"1506","standard_code":"370600","script_index":"6","agency_code":"Â³F","parent_id":"16","name":"ÑÌÌ¨","domain":"yantai","database":"others","pinyin":"yantai","location":"b121.447926,37.463819","region_id":"4","area_code":"0535","nc_region_id":"103","type":"2"},{"id":"138","city_code":"1706","standard_code":"450900","script_index":"6","agency_code":"¹ðK","parent_id":"18","name":"ÓñÁÖ","domain":"gxyulin","database":"others","pinyin":"yulin","location":"b110.164756,22.636379","region_id":"2","area_code":"0775","nc_region_id":"101","type":"2"},{"id":"192","city_code":"2406","standard_code":"632700","script_index":"6","agency_code":"ÇàG","parent_id":"25","name":"ÓñÊ÷","domain":"yushu","database":"others","pinyin":"yushu","location":"b97.006636,33.005822","region_id":"3","area_code":"0976","nc_region_id":"103","type":"2"},{"id":"162","city_code":"2007","standard_code":"140800","script_index":"7","agency_code":"½úM","parent_id":"21","name":"ÔË³Ç","domain":"yuncheng","database":"others","pinyin":"yuncheng","location":"b111.007324,35.026372","region_id":"3","area_code":"0359","nc_region_id":"100","type":"2"},{"id":"252","city_code":"2907","standard_code":"654000","script_index":"7","agency_code":"ÐÂF","parent_id":"30","name":"ÒÁÀç","domain":"yili","database":"others","pinyin":"yili","location":"b81.324096,43.916862","region_id":"3","area_code":"0999","nc_region_id":"103","type":"2"},{"id":"73","city_code":"908","standard_code":"320900","script_index":"8","agency_code":"ËÕJ","parent_id":"10","name":"ÑÎ³Ç","domain":"yancheng","database":"others","pinyin":"yancheng","location":"b120.163561,33.347378","region_id":"7","area_code":"0515","nc_region_id":"102","type":"2"},{"id":"92","city_code":"1308","standard_code":"222400","script_index":"8","agency_code":"¼ªH","parent_id":"14","name":"ÑÓ±ß","domain":"yanbian","database":"others","pinyin":"yanbian","location":"b129.508946,42.891254","region_id":"4","area_code":"0433","nc_region_id":"100","type":"2"},{"id":"212","city_code":"2608","standard_code":"431100","script_index":"8","agency_code":"ÏæM","parent_id":"27","name":"ÓÀÖÝ","domain":"yongzhou","database":"others","pinyin":"yongzhou","location":"b111.613445,26.420394","region_id":"6","area_code":"0746","nc_region_id":"103","type":"2"},{"id":"52","city_code":"509","standard_code":"511500","script_index":"9","agency_code":"´¨Q","parent_id":"6","name":"ÒË±ö","domain":"yibin","database":"others","pinyin":"yibin","location":"b104.643373,28.751878","region_id":"5","area_code":"0831","nc_region_id":"104","type":"2"},{"id":"74","city_code":"909","standard_code":"321000","script_index":"9","agency_code":"ËÕK","parent_id":"10","name":"ÑïÖÝ","domain":"yangzhou","database":"others","pinyin":"yangzhou","location":"b119.412966,32.39421","region_id":"7","area_code":"0514","nc_region_id":"102","type":"2"},{"id":"335","city_code":"2611","standard_code":"430900","script_index":"11","agency_code":"ÏæH","parent_id":"27","name":"ÒæÑô","domain":"yiyang","database":"others","pinyin":"yiyang","location":"b112.355582,28.553883","region_id":"6","area_code":"0737","nc_region_id":"103","type":"2"},{"id":"386","city_code":"612","standard_code":"330782","script_index":"12","agency_code":"ÕãG","parent_id":"7","name":"ÒåÎÚ","domain":"yiwu","database":"others","pinyin":"yiwu","location":"b120.071895,29.320553","region_id":"1","area_code":"0579","nc_region_id":"102","type":"2"},{"id":"269","city_code":"416","standard_code":"441700","script_index":"16","agency_code":"ÔÁQ","parent_id":"5","name":"Ñô½­","domain":"yangjiang","database":"others","pinyin":"yangjiang","location":"b111.982207,21.857938","region_id":"2","area_code":"0662","nc_region_id":"101","type":"2"},{"id":"280","city_code":"516","standard_code":"511800","script_index":"16","agency_code":"´¨T","parent_id":"6","name":"ÑÅ°²","domain":"yaan","database":"others","pinyin":"yaan","location":"b103.013163,29.980514","region_id":"5","area_code":"0835","nc_region_id":"104","type":"2"},{"id":"273","city_code":"420","standard_code":"445300","script_index":"20","agency_code":"ÔÁW","parent_id":"5","name":"ÔÆ¸¡","domain":"yunfu","database":"others","pinyin":"yunfu","location":"b112.044491,22.915094","region_id":"2","area_code":"0766","nc_region_id":"101","type":"2"}],"Z":[{"id":"103","city_code":"1200","standard_code":"410100","script_index":"0","agency_code":"Ô¥A","parent_id":"13","name":"Ö£ÖÝ","domain":"zz","database":"zhengzhou","pinyin":"zhengzhou","location":"b113.624899,34.746985","region_id":"6","area_code":"0371","nc_region_id":"103","type":"2"},{"id":"46","city_code":"501","standard_code":"510300","script_index":"1","agency_code":"´¨C","parent_id":"6","name":"×Ô¹±","domain":"zigong","database":"others","pinyin":"zigong","location":"b104.778442,29.33903","region_id":"5","area_code":"0813","nc_region_id":"104","type":"2"},{"id":"205","city_code":"2601","standard_code":"430200","script_index":"1","agency_code":"ÏæB","parent_id":"27","name":"ÖêÖÞ","domain":"zhuzhou","database":"others","pinyin":"zhuzhou","location":"b113.133775,27.827827","region_id":"6","area_code":"0731","nc_region_id":"103","type":"2"},{"id":"38","city_code":"702","standard_code":"520300","script_index":"2","agency_code":"¹óC","parent_id":"8","name":"×ñÒå","domain":"zunyi","database":"others","pinyin":"zunyi","location":"b106.927389,27.725654","region_id":"5","area_code":"0852","nc_region_id":"104","type":"2"},{"id":"18","city_code":"403","standard_code":"440400","script_index":"3","agency_code":"ÔÁC","parent_id":"5","name":"Öéº£","domain":"zhuhai","database":"others","pinyin":"zhuhai","location":"b113.576726,22.270715","region_id":"2","area_code":"0756","nc_region_id":"101","type":"2"},{"id":"115","city_code":"1503","standard_code":"370300","script_index":"3","agency_code":"Â³C","parent_id":"16","name":"×Í²©","domain":"zibo","database":"others","pinyin":"zibo","location":"b118.055007,36.813497","region_id":"4","area_code":"0533","nc_region_id":"103","type":"2"},{"id":"116","city_code":"1504","standard_code":"370400","script_index":"4","agency_code":"Â³D","parent_id":"16","name":"Ôæ×¯","domain":"zaozhuang","database":"others","pinyin":"zaozhuang","location":"b117.323725,34.810488","region_id":"4","area_code":"0632","nc_region_id":"103","type":"2"},{"id":"229","city_code":"2804","standard_code":"530600","script_index":"4","agency_code":"ÔÆC","parent_id":"29","name":"ÕÑÍ¨","domain":"zhaotong","database":"others","pinyin":"zhaotong","location":"b103.717465,27.338257","region_id":"5","area_code":"0870","nc_region_id":"104","type":"2"},{"id":"342","city_code":"2104","standard_code":"640500","script_index":"4","agency_code":"ÄþE","parent_id":"22","name":"ÖÐÎÀ","domain":"zhongwei","database":"others","pinyin":"zhongwei","location":"b105.170028263,37.5162708107","region_id":"3","area_code":"0955","nc_region_id":"103","type":"2"},{"id":"7","city_code":"1105","standard_code":"130700","script_index":"5","agency_code":"¼½G","parent_id":"12","name":"ÕÅ¼Ò¿Ú","domain":"zhangjiakou","database":"others","pinyin":"zhangjiakou","location":"b114.885951,40.767576","region_id":"3","area_code":"0313","nc_region_id":"100","type":"2"},{"id":"80","city_code":"1005","standard_code":"350600","script_index":"5","agency_code":"ÃöE","parent_id":"11","name":"ÕÄÖÝ","domain":"zhangzhou","database":"others","pinyin":"zhangzhou","location":"b117.647363,24.513321","region_id":"6","area_code":"0596","nc_region_id":"101","type":"2"},{"id":"171","city_code":"2205","standard_code":"620700","script_index":"5","agency_code":"¸ÊG","parent_id":"23","name":"ÕÅÒ´","domain":"zhangye","database":"others","pinyin":"zhangye","location":"b100.449822,38.925646","region_id":"3","area_code":"0936","nc_region_id":"103","type":"2"},{"id":"25","city_code":"407","standard_code":"442000","script_index":"7","agency_code":"ÔÁT","parent_id":"5","name":"ÖÐÉ½","domain":"zhongshan","database":"others","pinyin":"zhongshan","location":"b113.392795,22.516686","region_id":"2","area_code":"0760","nc_region_id":"101","type":"2"},{"id":"34","city_code":"608","standard_code":"330900","script_index":"8","agency_code":"ÕãL","parent_id":"7","name":"ÖÛÉ½","domain":"zhoushan","database":"others","pinyin":"zhoushan","location":"b122.206604,29.985451","region_id":"1","area_code":"0580","nc_region_id":"102","type":"2"},{"id":"35","city_code":"609","standard_code":"331000","script_index":"9","agency_code":"ÕãJ","parent_id":"7","name":"Ì¨ÖÝ","domain":"zjtaizhou","database":"others","pinyin":"zjtaizhou","location":"b121.420757,28.656386","region_id":"1","area_code":"0576","nc_region_id":"102","type":"2"},{"id":"290","city_code":"910","standard_code":"321100","script_index":"10","agency_code":"ËÕL","parent_id":"10","name":"Õò½­","domain":"zhenjiang","database":"others","pinyin":"zhenjiang","location":"b119.45722,32.199147","region_id":"7","area_code":"0511","nc_region_id":"102","type":"2"},{"id":"334","city_code":"2610","standard_code":"430800","script_index":"10","agency_code":"ÏæG","parent_id":"27","name":"ÕÅ¼Ò½ç","domain":"zhangjiajie","database":"others","pinyin":"zhangjiajie","location":"b110.479221,29.116525","region_id":"6","area_code":"0744","nc_region_id":"103","type":"2"},{"id":"264","city_code":"411","standard_code":"440800","script_index":"11","agency_code":"ÔÁG","parent_id":"5","name":"Õ¿½­","domain":"zhanjiang","database":"others","pinyin":"zhanjiang","location":"b110.359255,21.270764","region_id":"2","area_code":"0759","nc_region_id":"101","type":"2"},{"id":"265","city_code":"412","standard_code":"441200","script_index":"12","agency_code":"ÔÁH","parent_id":"5","name":"ÕØÇì","domain":"zhaoqing","database":"others","pinyin":"zhaoqing","location":"b112.465091,23.047192","region_id":"2","area_code":"0758","nc_region_id":"101","type":"2"},{"id":"299","city_code":"1216","standard_code":"411600","script_index":"16","agency_code":"Ô¥P","parent_id":"13","name":"ÖÜ¿Ú","domain":"zhoukou","database":"others","pinyin":"zhoukou","location":"b114.657616,33.618686","region_id":"6","area_code":"0394","nc_region_id":"103","type":"2"},{"id":"300","city_code":"1217","standard_code":"411700","script_index":"17","agency_code":"Ô¥Q","parent_id":"13","name":"×¤Âíµê","domain":"zhumadian","database":"others","pinyin":"zhumadian","location":"b114.022298,33.011529","region_id":"6","area_code":"0396","nc_region_id":"103","type":"2"},{"id":"282","city_code":"518","standard_code":"512000","script_index":"18","agency_code":"´¨M","parent_id":"6","name":"×ÊÑô","domain":"ziyang","database":"others","pinyin":"ziyang","location":"b104.629038,30.129184","region_id":"5","area_code":"028","nc_region_id":"104","type":"2"}]}}